"station_id","station_name","lon","lat","city","city_sn","town","town_sn","attribute"
"C0M530","奮起湖","120.6911","23.4958","嘉義縣","17","竹崎鄉","215","局屬無人測站"
"C0O970","虎頭埤","120.3398","23.0231","臺南市","04","新化區","267","局屬無人測站"
"C0V400","阿公店","120.3474","22.8059","高雄市","05","燕巢區","296","局屬無人測站"
"C0A560","福山","121.4946","24.7783","新北市","06","烏來區","061","局屬無人測站"
"01A220","三峽","121.3474","24.9407","新北市","06","三峽區","057","水利署第10河川局"
"81I560","豐丘","120.8688","23.6698","南投縣","13","信義鄉","175","農委會水土保持局"
"C0X190","安平","120.1441","22.995","臺南市","04","安平區","276","局屬無人測站"
"C0A520","山佳","121.3938","24.9767","新北市","06","樹林區","046","局屬無人測站"
"C0M740","六腳","120.2825","23.4946","嘉義縣","17","六腳鄉","214","局屬無人測站"
"01H310","翠峰","121.1911","24.1088","南投縣","13","仁愛鄉","122","水利署第4河川局"
"C1F9E1","龍安","120.8239","24.1619","臺中市","02","新社區","119","局屬無人測站"
"C0F0B0","石岡","120.7695","24.2778","臺中市","02","石岡區","116","局屬無人測站"
"A1AC70","挹翠","121.5662","25.0189","臺北市","01","信義區","038","北市府大地工程處"
"467480","嘉義","120.4248","23.4977","嘉義市","09","西區","219","中央氣象局"
"C1E770","公館","120.8226","24.5286","苗栗縣","11","公館鄉","099","局屬無人測站"
"C0M730","嘉義市東區","120.4524","23.4594","嘉義市","09","東區","217","局屬無人測站"
"C1V170","排雲","120.946","23.4651","高雄市","05","桃源區","353","局屬無人測站"
"467440","高雄","120.3077","22.5677","高雄市","05","前鎮區","328","中央氣象局"
"C0A650","火燒寮","121.7346","25.0044","新北市","06","平溪區","029","局屬無人測站"
"C0M680","太保","120.3233","23.4568","嘉義縣","17","太保市","218","局屬無人測站"
"C1V220","小關山","120.8053","23.1558","高雄市","05","桃源區","353","局屬無人測站"
"O1T840","花蓮","121.5978","23.9747","花蓮縣","21","花蓮市","150","水利署第9河川局"
"U2H140","臺大竹山","120.6734","23.7587","南投縣","13","竹山鎮","178","中央氣象局"
"C0K460","斗南","120.4702","23.6805","雲林縣","16","斗南鎮","193","局屬無人測站"
"01U070","留茂安","121.4431","24.5336","宜蘭縣","07","大同鄉","081","水利署第1河川局"
"82C160","茶改場","121.1771","24.9103","桃園市","08","楊梅區","056","中央氣象局"
"C0X060","下營","120.2482","23.2287","臺南市","04","下營區","242","局屬無人測站"
"O1V550","多納(1)","120.708","22.912","高雄市","05","茂林區","278","水利署第7河川局"
"C1E461","松安","120.9778","24.3994","苗栗縣","11","泰安鄉","101","局屬無人測站"
"81D650","內灣國小","121.175","24.7072","新竹縣","10","橫山鄉","078","農委會水土保持局"
"120570","嘉南水利","120.1627","23.235","臺南市","04","學甲區","239","農田水利會"
"01P660","甲仙(2)","120.5796","23.0856","高雄市","05","甲仙區","251","水利署第7河川局"
"C0R510","萬丹","120.4824","22.5896","屏東縣","20","萬丹鄉","327","局屬無人測站"
"466880","板橋","121.4338","24.9994","新北市","06","板橋區","041","中央氣象局"
"C0S750","向陽","120.9781","23.25","臺東縣","22","海端鄉","240","局屬無人測站"
"C1I131","桶頭","120.6456","23.6442","南投縣","13","竹山鎮","178","局屬無人測站"
"A1AG80","金面","121.5617","25.0967","臺北市","01","內湖區","021","北市府大地工程處"
"C0T9A0","月眉山","121.5317","23.8117","花蓮縣","21","壽豐鄉","161","局屬無人測站"
"C0X100","臺南市北區","120.1863","23.0122","臺南市","04","北區","357","局屬無人測站"
"C0F9P0","清水","120.5541","24.314","臺中市","02","清水區","112","局屬無人測站"
"C1V230","高中","120.7086","23.1366","高雄市","05","桃源區","353","局屬無人測站"
"G2L020","嘉義農試","120.4657","23.4868","嘉義市","09","東區","217","中央氣象局"
"O1R620","新庄國小","120.4803","22.5619","屏東縣","20","萬丹鄉","327","水利署第7河川局"
"C0E550","明德","120.8772","24.5853","苗栗縣","11","頭屋鄉","094","局屬無人測站"
"01E380","大河","120.9381","24.6193","苗栗縣","11","三灣鄉","088","水利署第2河川局"
"01D190","鳥嘴山","121.2755","24.721","新竹縣","10","尖石鄉","077","水利署第2河川局"
"01V060","梅山(2)","120.8168","23.2673","高雄市","05","桃源區","353","水利署第7河川局"
"C0F9N0","大里","120.6922","24.0944","臺中市","02","大里區","141","局屬無人測站"
"C0X130","官田","120.3075","23.195","臺南市","04","官田區","248","局屬無人測站"
"C1S820","金峰","120.9252","22.5928","臺東縣","22","金峰鄉","352","局屬無人測站"
"81I520","九份二山","120.8462","23.9517","南投縣","13","國姓鄉","139","農委會水土保持局"
"01Q920","新瑪家","120.6787","22.6771","屏東縣","20","瑪家鄉","308","水利署第7河川局"
"C0C660","楊梅","121.1348","24.9141","桃園市","08","楊梅區","056","局屬無人測站"
"72S200","斑鳩分場","121.0696","22.8313","臺東縣","22","卑南鄉","289","中央氣象局"
"C0G720","溪州","120.4909","23.8533","彰化縣","14","溪州鄉","174","局屬無人測站"
"C0S690","太麻里","120.9773","22.6108","臺東縣","22","太麻里鄉","312","局屬無人測站"
"01L480","樟腦寮(2","120.5945","23.5348","嘉義縣","17","竹崎鄉","215","水利署第5河川局"
"C0X280","將軍","120.1277","23.2167","臺南市","04","將軍區","245","局屬無人測站"
"C0AH40","平等","121.5689","25.1309","臺北市","01","士林區","007","局屬無人測站"
"88U940","寒溪","121.6788","24.611","宜蘭縣","07","大同鄉","081","農委會水土保持局"
"01H210","翠巒","121.1954","24.1844","南投縣","13","仁愛鄉","122","水利署第3河川局"
"C0V620","永安","120.2288","22.8249","高雄市","05","永安區","293","局屬無人測站"
"C0H960","草屯","120.6722","23.9754","南投縣","13","草屯鎮","152","局屬無人測站"
"72M360","義竹分場","120.2712","23.3624","嘉義縣","17","義竹鄉","229","中央氣象局"
"C0A640","石碇","121.6546","24.9958","新北市","06","石碇區","040","局屬無人測站"
"C0A930","三和","121.587","25.2349","新北市","06","金山區","003","局屬無人測站"
"C0AC40","大屯山","121.5142","25.1773","臺北市","01","北投區","006","局屬無人測站"
"C0T9M0","靜浦","121.4867","23.4569","花蓮縣","21","豐濱鄉","188","局屬無人測站"
"01U460","五峰","121.7403","24.8318","宜蘭縣","07","礁溪鄉","065","水利署第1河川局"
"01U470","武塔","121.7691","24.4513","宜蘭縣","07","南澳鄉","093","水利署第1河川局"
"C1O920","楠西","120.4766","23.1841","臺南市","04","楠西區","246","局屬無人測站"
"A1AB60","福德","121.5207","25.1012","臺北市","01","士林區","007","北市府水利處"
"C0U710","太平山","121.5175","24.5072","宜蘭縣","07","大同鄉","081","局屬無人測站"
"01A350","富貴角","121.5359","25.2903","新北市","06","石門區","001","水利署第10河川局"
"C0V670","楠梓","120.2779","22.7215","高雄市","05","楠梓區","305","局屬無人測站"
"A0K420","麥寮","120.2096","23.8005","雲林縣","16","麥寮鄉","179","中央氣象局"
"C1I260","北坑","120.9989","23.9264","南投縣","13","埔里鎮","147","局屬無人測站"
"72U480","蘭陽分場","121.7084","24.6881","宜蘭縣","07","三星鄉","084","中央氣象局"
"01J100","西螺(2)","120.4567","23.8022","雲林縣","16","西螺鎮","182","水利署第4河川局"
"C0V350","溪埔","120.4386","22.7403","高雄市","05","大樹區","300","局屬無人測站"
"C0U900","內城","121.6795","24.7199","宜蘭縣","07","員山鄉","074","局屬無人測站"
"C1E480","鳳美","121.0261","24.5567","苗栗縣","11","南庄鄉","092","局屬無人測站"
"C1D410","白蘭","121.0718","24.5811","新竹縣","10","五峰鄉","089","局屬無人測站"
"81C710","高坡國小","121.3434","24.7698","桃園市","08","復興區","067","農委會水土保持局"
"467610","成功","121.3653","23.0993","臺東縣","22","成功鎮","258","中央氣象局"
"81U870","樂水分校","121.5211","24.6021","宜蘭縣","07","大同鄉","081","農委會水土保持局"
"C0X110","臺南市南區","120.1804","22.963","臺南市","04","南區","281","局屬無人測站"
"C1I020","萬大","121.124","23.9816","南投縣","13","仁愛鄉","122","局屬無人測站"
"01T730","豐濱","121.5124","23.6042","花蓮縣","21","豐濱鄉","188","水利署第9河川局"
"CM0010","花博豐原","120.707","24.2586","臺中市","02","豐原區","117","局屬無人測站"
"C1S870","南美山","121.3743","23.1521","臺東縣","22","成功鎮","258","局屬無人測站"
"C0E790","卓蘭","120.8162","24.3148","苗栗縣","11","卓蘭鎮","109","局屬無人測站"
"88C690","蘇樂","121.3486","24.7024","桃園市","08","復興區","067","農委會水土保持局"
"C0Z230","和平","121.7619","24.309","花蓮縣","21","秀林鄉","108","局屬無人測站"
"C0O810","曾文","120.4892","23.2215","臺南市","04","楠西區","246","局屬無人測站"
"C0F970","大坑","120.7141","24.1749","臺中市","02","北屯區","124","局屬無人測站"
"C0AD50","鶯歌","121.3373","24.953","新北市","06","鶯歌區","054","局屬無人測站"
"C0R520","崁頂","120.499","22.5166","屏東縣","20","崁頂鄉","334","局屬無人測站"
"C0Z190","富世","121.6215","24.1492","花蓮縣","21","秀林鄉","108","局屬無人測站"
"81E870","白布帆","120.8977","24.3","苗栗縣","11","卓蘭鎮","109","農委會水土保持局"
"C0G880","二水","120.609","23.8128","彰化縣","14","二水鄉","177","局屬無人測站"
"81AH40","精忠","121.5239","24.9615","新北市","06","新店區","050","農委會水土保持局"
"C1T940","大觀","121.365","23.7161","花蓮縣","21","萬榮鄉","166","局屬無人測站"
"C0M690","水上","120.3808","23.4215","嘉義縣","17","水上鄉","223","局屬無人測站"
"21D170","鎮西堡","121.3","24.5667","新竹縣","10","尖石鄉","077","石門水庫"
"C0A9A0","大直","121.5347","25.0797","臺北市","01","中山區","026","局屬無人測站"
"C0X270","柳營","120.3655","23.259","臺南市","04","柳營區","238","局屬無人測站"
"C0I380","集集","120.7933","23.83","南投縣","13","集集鎮","176","局屬無人測站"
"C0G770","福興","120.4295","24.043","彰化縣","14","福興鄉","145","局屬無人測站"
"O1AH20","上林國小","121.8243","25.0312","新北市","06","雙溪區","024","水利署第1河川局"
"K2E710","大湖分場","120.8637","24.4246","苗栗縣","11","大湖鄉","103","中央氣象局"
"C0O830","北寮","120.4869","23.0816","臺南市","04","南化區","244","局屬無人測站"
"88T920","大興","121.3897","23.6337","花蓮縣","21","光復鄉","194","農委會水土保持局"
"A1AC50","舊莊","121.6165","25.0358","臺北市","01","南港區","035","北市府大地工程處"
"C1I310","西巒","120.8756","23.7564","南投縣","13","信義鄉","175","局屬無人測站"
"81H980","車籠埔","120.7027","23.7954","南投縣","13","竹山鎮","178","農委會水土保持局"
"B2N890","畜試所","120.3283","23.0607","臺南市","04","新化區","267","中央氣象局"
"C0S760","紅石","121.12","23.0714","臺東縣","22","海端鄉","240","局屬無人測站"
"O1H540","龍神橋","120.8636","23.7817","南投縣","13","水里鄉","168","水利署第4河川局"
"A1A9U0","桃源國中","121.4687","25.1362","臺北市","01","北投區","006","北市府水利處"
"C1E691","南湖","120.8294","24.4028","苗栗縣","11","大湖鄉","103","局屬無人測站"
"C1I101","溪頭","120.7992","23.6631","南投縣","13","鹿谷鄉","183","局屬無人測站"
"C0S890","關山","121.1669","23.0413","臺東縣","22","關山鎮","262","局屬無人測站"
"C0C690","國一五楊","121.3328","25.0656","桃園市","08","龜山區","034","局屬無人測站"
"A1AB30","中洲","121.4665","25.1071","臺北市","01","士林區","007","北市府水利處"
"81U900","大溪國小","121.8788","24.9374","宜蘭縣","07","頭城鎮","051","農委會水土保持局"
"467420","永康","120.2286","23.0401","臺南市","04","永康區","268","中央氣象局"
"C0D360","梅花","121.2004","24.6801","新竹縣","10","尖石鄉","077","局屬無人測站"
"01Q350","新來義","120.6703","22.5288","屏東縣","20","來義鄉","331","水利署第7河川局"
"C0Z020","明里","121.2542","23.2106","花蓮縣","21","富里鄉","241","局屬無人測站"
"C0D560","竹東","121.0499","24.7693","新竹縣","10","竹東鎮","073","局屬無人測站"
"C0G840","北斗","120.5065","23.8792","彰化縣","14","北斗鎮","171","局屬無人測站"
"C0X140","西港","120.1951","23.1274","臺南市","04","西港區","256","局屬無人測站"
"C0T820","天祥","121.4875","24.1814","花蓮縣","21","秀林鄉","108","局屬無人測站"
"C0C650","平鎮","121.2064","24.8994","桃園市","08","平鎮區","055","局屬無人測站"
"81D630","尖石國小","121.2183","24.7305","新竹縣","10","尖石鄉","077","農委會水土保持局"
"01H590","六分寮","120.6299","23.9279","南投縣","13","南投市","160","水利署第3河川局"
"C0M520","東後寮","120.2399","23.3716","嘉義縣","17","義竹鄉","229","局屬無人測站"
"C1U840","東澳嶺","121.8406","24.5393","宜蘭縣","07","南澳鄉","093","局屬無人測站"
"C1V300","御油山","120.7069","23.0039","高雄市","05","桃源區","353","局屬無人測站"
"C1S670","摩天","121.0192","23.2011","臺東縣","22","海端鄉","240","局屬無人測站"
"81AI30","大粗坑","121.8307","25.0931","新北市","06","瑞芳區","018","農委會水土保持局"
"C1R330","枋山","120.6531","22.2486","屏東縣","20","枋山鄉","346","局屬無人測站"
"01E330","大坪頂","120.7196","24.4272","苗栗縣","11","通霄鎮","098","水利署第2河川局"
"C0I540","奇萊稜線","121.3183","24.111","南投縣","13","仁愛鄉","178","局屬無人測站"
"72Q010","高雄農改","120.5178","22.7111","屏東縣","20","長治鄉","307","中央氣象局"
"C1E681","南勢山","120.9156","24.4236","苗栗縣","11","泰安鄉","101","局屬無人測站"
"01Q860","牡丹","120.8287","22.1774","屏東縣","20","牡丹鄉","347","水利署第7河川局"
"C1V200","梅山","120.8154","23.2703","高雄市","05","桃源區","353","局屬無人測站"
"A1A9S0","湖田國小","121.5307","25.1704","臺北市","01","北投區","006","北市府水利處"
"01J930","林內(1)","120.6044","23.757","雲林縣","16","林內鄉","186","水利署第5河川局"
"A1A9X0","太平國小","121.5035","25.0635","臺北市","01","大同區","028","北市府水利處"
"C0W150","金寧","118.3208","24.4593","金門縣","99","金寧鄉","999","局屬無人測站"
"C0H990","昆陽","121.2654","24.1231","南投縣","13","仁愛鄉","122","局屬無人測站"
"01E120","大埔","120.89","24.7112","苗栗縣","11","竹南鎮","079","水利署第2河川局"
"A1A9V0","北投國小","121.4907","25.1357","臺北市","01","北投區","006","北市府水利處"
"C1V780","多納林道","120.7299","22.8898","高雄市","05","茂林區","278","局屬無人測站"
"467350","澎湖","119.555","23.5672","澎湖縣","23","馬公市","212","中央氣象局"
"C0I480","梅峰","121.1654","24.0871","南投縣","13","仁愛鄉","178","局屬無人測站"
"C0A950","鼻頭角","121.9153","25.1308","新北市","06","瑞芳區","018","局屬無人測站"
"C0Z290","赤柯山","121.3748","23.3707","花蓮縣","21","玉里鎮","221","局屬無人測站"
"C0T9I0","豐濱","121.5067","23.5857","花蓮縣","21","豐濱鄉","188","局屬無人測站"
"C1I250","鯉潭","120.9831","23.9639","南投縣","13","埔里鎮","147","局屬無人測站"
"C1E701","八卦","120.9194","24.4936","苗栗縣","11","泰安鄉","101","局屬無人測站"
"467110","金門","118.2811","24.4089","金門縣","99","金城鎮","999","中央氣象局"
"01S440","新武(3)","121.1148","23.1344","臺東縣","22","海端鄉","240","水利署第8河川局"
"01A190","碧湖","121.7374","24.8927","新北市","06","坪林區","053","水利署第10河川局"
"81H950","福龜國小","120.8143","24.0133","南投縣","13","國姓鄉","139","農委會水土保持局"
"O1V810","溝坪","120.5009","22.9924","高雄市","05","內門區","270","水利署第7河川局"
"C0V680","仁武","120.3397","22.7029","高雄市","05","仁武區","306","局屬無人測站"
"C0V760","橋頭","120.2977","22.7596","高雄市","05","橋頭區","299","局屬無人測站"
"01T670","新東礦","121.3953","23.8166","花蓮縣","21","萬榮鄉","166","水利署第9河川局"
"O1V820","圓富國中","120.501","22.9283","高雄市","05","旗山區","283","水利署第7河川局"
"81T910","東里國中","121.295","23.2651","花蓮縣","21","富里鄉","241","農委會水土保持局"
"81C700","大艽芎古道","121.2804","24.8268","桃園市","08","大溪區","060","農委會水土保持局"
"C0V800","六龜","120.6255","22.9998","高雄市","05","六龜區","259","局屬無人測站"
"C0F9U0","南屯","120.6301","24.1389","臺中市","02","南屯區","129","局屬無人測站"
"O1D590","成德中學","120.9445","24.7916","新竹市","15","北區","066","水利署第2河川局"
"88O950","羌黃坑","120.5289","23.0739","臺南市","04","南化區","244","農委會水土保持局"
"C1V390","尖山","120.3597","22.815","高雄市","05","燕巢區","296","局屬無人測站"
"C0A860","大坪","121.6248","25.1677","新北市","06","萬里區","005","局屬無人測站"
"A1AD60","貓空","121.5871","24.9707","臺北市","01","文山區","356","北市府大地工程處"
"C0A660","瑞芳","121.7926","25.1149","新北市","06","瑞芳區","018","局屬無人測站"
"C0R570","麟洛","120.5191","22.6526","屏東縣","20","麟洛鄉","317","局屬無人測站"
"01U080","南山","121.3712","24.4389","宜蘭縣","07","大同鄉","081","水利署第1河川局"
"81AI20","有木國小","121.4293","24.8554","新北市","06","三峽區","057","農委會水土保持局"
"C0T9H0","加路蘭山","121.5192","23.6847","花蓮縣","21","豐濱鄉","188","局屬無人測站"
"C1T970","大農","121.4052","23.617","花蓮縣","21","光復鄉","194","局屬無人測站"
"81H930","玉峰國小","120.8295","23.8074","南投縣","13","水里鄉","168","農委會水土保持局"
"C0V640","湖內","120.2364","22.8889","高雄市","05","湖內區","285","局屬無人測站"
"467080","宜蘭","121.7483","24.7658","宜蘭縣","07","宜蘭市","075","中央氣象局"
"O1S120","鹿鳴橋","121.0784","22.9004","臺東縣","22","鹿野鄉","274","水利署第8河川局"
"81S880","愛國埔分校","120.9147","22.4595","臺東縣","22","大武鄉","342","農委會水土保持局"
"01U130","冬山","121.7758","24.6375","宜蘭縣","07","冬山鄉","087","水利署第1河川局"
"81E710","開礦國小","120.8557","24.4634","苗栗縣","11","公館鄉","099","農委會水土保持局"
"C0M410","馬頭山","120.5736","23.3264","嘉義縣","17","大埔鄉","233","局屬無人測站"
"A2E700","雪見","121.0053","24.4276","苗栗縣","11","泰安鄉","101","中央氣象局"
"A2K570","古坑","120.5443","23.6353","雲林縣","16","古坑鄉","196","中央氣象局"
"A1AD00","菁山","121.5578","25.1458","臺北市","01","士林區","007","北市府大地工程處"
"C0S830","長濱","121.4039","23.2886","臺東縣","22","長濱鄉","227","局屬無人測站"
"C1S620","土阪","120.8794","22.4547","臺東縣","22","達仁鄉","337","局屬無人測站"
"C0K250","崙背","120.3108","23.7575","雲林縣","16","崙背鄉","181","局屬無人測站"
"C1M620","瑞里","120.667","23.5469","嘉義縣","17","梅山鄉","210","局屬無人測站"
"21D160","白石","121.2167","24.55","新竹縣","10","尖石鄉","077","石門水庫"
"C1M570","大湖","120.6121","23.4767","嘉義縣","17","番路鄉","220","局屬無人測站"
"C1I230","九份二山","120.8369","23.9637","南投縣","13","國姓鄉","139","局屬無人測站"
"A0W030","金門(東)","118.4251","24.4183","金門縣","99","金湖鎮","999","中央氣象局"
"C0W170","東引","120.4753","26.3605","連江縣","99","東引鄉","999","局屬無人測站"
"C0Z150","吉安光華","121.587","23.9327","花蓮縣","21","吉安鄉","154","局屬無人測站"
"C0S840","南田","120.8819","22.2919","臺東縣","22","達仁鄉","337","局屬無人測站"
"C0H9A0","神木村","120.8356","23.5345","南投縣","13","信義鄉","175","局屬無人測站"
"CM0030","花博外埔","120.6745","24.3246","臺中市","02","外埔區","110","局屬無人測站"
"C1H000","翠峰","121.197","24.1112","南投縣","13","仁愛鄉","122","局屬無人測站"
"C0O950","安南","120.1367","23.0783","臺南市","04","安南區","265","局屬無人測站"
"C0U890","三星","121.6448","24.6699","宜蘭縣","07","三星鄉","084","局屬無人測站"
"467060","蘇澳","121.8492","24.5986","宜蘭縣","07","蘇澳鎮","354","中央氣象局"
"A1A9Y0","民生國中","121.5585","25.0615","臺北市","01","松山區","031","北市府水利處"
"C0O990","媽廟","120.2854","22.9935","臺南市","04","歸仁區","271","局屬無人測站"
"01U120","新寮(1)","121.7438","24.6268","宜蘭縣","07","冬山鄉","087","水利署第1河川局"
"C0Z300","東里","121.2974","23.2703","花蓮縣","21","富里鄉","241","局屬無人測站"
"A1AB20","雙園","121.4821","25.0321","臺北市","01","萬華區","037","北市府水利處"
"O1R630","崁頂","120.503","22.515","屏東縣","20","崁頂鄉","334","水利署第7河川局"
"C0C480","桃園","121.315","24.9943","桃園市","08","桃園區","042","局屬無人測站"
"C0M760","民雄","120.4203","23.5535","嘉義縣","17","民雄鄉","213","局屬無人測站"
"01Q360","南和","120.6303","22.4363","屏東縣","20","來義鄉","331","水利署第7河川局"
"C0V720","林園","120.3866","22.5096","高雄市","05","林園區","335","局屬無人測站"
"C1T810","慈恩","121.3803","24.1939","花蓮縣","21","秀林鄉","108","局屬無人測站"
"C0S900","蘭嶼高中","121.5041","22.0509","臺東縣","22","蘭嶼鄉","351","局屬無人測站"
"C1R340","牡丹","120.7846","22.1318","屏東縣","20","牡丹鄉","347","局屬無人測站"
"01U450","樟林","121.7412","24.4277","宜蘭縣","07","南澳鄉","093","水利署第1河川局"
"A1AC40","指南","121.5721","24.9833","臺北市","01","文山區","356","北市府大地工程處"
"01S860","電光","121.1652","23.008","臺東縣","22","關山鎮","262","水利署第8河川局"
"C0AH70","松山","121.5422","25.0505","臺北市","01","松山區","031","局屬無人測站"
"C0UA60","樟樹山","121.7751","24.4157","宜蘭縣","07","南澳鄉","093","局屬無人測站"
"C0K500","元長","120.3069","23.6515","雲林縣","16","元長鄉","197","局屬無人測站"
"C1A730","公館","121.5313","25.0162","臺北市","01","大安區","039","局屬無人測站"
"C0C670","龍潭","121.2132","24.8718","桃園市","08","龍潭區","062","局屬無人測站"
"01U560","太平山(1","121.5283","24.4963","宜蘭縣","07","大同鄉","081","水利署第1河川局"
"72K220","雲林農改","120.4692","23.6363","雲林縣","16","斗南鎮","193","中央氣象局"
"O1R450","新豐(1)","120.6091","22.8572","屏東縣","20","高樹鄉","290","水利署第7河川局"
"C0R490","九如","120.4825","22.7423","屏東縣","20","九如鄉","302","局屬無人測站"
"C0I390","仁愛","121.1241","24.0239","南投縣","13","仁愛鄉","122","局屬無人測站"
"C0U980","坪林石牌","121.7658","24.8666","宜蘭縣","07","頭城鎮","051","局屬無人測站"
"C0R350","貓鼻頭","120.7278","21.9236","屏東縣","20","恆春鎮","350","局屬無人測站"
"C0F930","大甲","120.6324","24.3499","臺中市","02","大甲區","105","局屬無人測站"
"01P390","金山","120.3901","22.8136","高雄市","05","燕巢區","296","水利署第6河川局"
"C1I500","大尖山","120.9867","23.8603","南投縣","13","仁愛鄉","122","局屬無人測站"
"C1F941","雪嶺","121.0186","24.2825","臺中市","02","和平區","104","局屬無人測站"
"C0D390","關西","121.1657","24.8001","新竹縣","10","關西鎮","068","局屬無人測站"
"K2E360","苗栗農改","120.8209","24.4975","苗栗縣","11","公館鄉","099","中央氣象局"
"C0I460","南投","120.6873","23.9115","南投縣","13","南投市","160","局屬無人測站"
"C1H9B1","阿眉","120.9861","24.1278","南投縣","13","仁愛鄉","122","局屬無人測站"
"C0R190","赤山","120.6063","22.5941","屏東縣","20","萬巒鄉","319","局屬無人測站"
"NUP490","復興國小","121.6496","25.1108","基隆市","03","七堵區","012","水利署第10河川局"
"C0E430","南庄","120.9921","24.6032","苗栗縣","11","南庄鄉","092","局屬無人測站"
"C0G800","埔鹽","120.4236","24.0022","彰化縣","14","埔鹽鄉","151","局屬無人測站"
"467050","新屋","121.0393","25.0085","桃園市","08","新屋區","047","中央氣象局"
"C0A9F0","內湖","121.5672","25.0812","臺北市","01","內湖區","021","局屬無人測站"
"C0K480","莿桐","120.4942","23.7629","雲林縣","16","莿桐鄉","185","局屬無人測站"
"81T900","卓溪國小","121.2952","23.3476","花蓮縣","21","卓溪鄉","207","農委會水土保持局"
"81T880","石梯坪","121.5033","23.4849","花蓮縣","21","豐濱鄉","188","農委會水土保持局"
"C0A940","金山","121.6356","25.2253","新北市","06","金山區","003","局屬無人測站"
"C1I220","樟湖","120.8392","23.9069","南投縣","13","國姓鄉","139","局屬無人測站"
"01E270","大湖(1)","120.8617","24.4254","苗栗縣","11","大湖鄉","103","水利署第2河川局"
"C0K470","林內","120.6015","23.7504","雲林縣","16","林內鄉","186","局屬無人測站"
"C0A920","富貴角","121.5573","25.2656","新北市","06","石門區","001","局屬無人測站"
"C1D630","飛鳳山","121.1107","24.7683","新竹縣","10","芎林鄉","071","局屬無人測站"
"81I530","神木","120.8486","23.53","南投縣","13","信義鄉","175","農委會水土保持局"
"C0E520","大湖","120.8627","24.4167","苗栗縣","11","大湖鄉","103","局屬無人測站"
"C0F860","梨山","121.2377","24.245","臺中市","02","和平區","104","局屬無人測站"
"01E170","南庄(1)","120.9922","24.5988","苗栗縣","11","南庄鄉","092","水利署第2河川局"
"C0B010","七堵","121.7089","25.0966","基隆市","03","七堵區","012","局屬無人測站"
"72D080","五峰站","121.149","24.614","新竹縣","10","五峰鄉","089","中央氣象局"
"C0F850","東勢","120.8249","24.2482","臺中市","02","東勢區","113","局屬無人測站"
"C0Z280","德武","121.4026","23.4761","花蓮縣","21","玉里鎮","221","局屬無人測站"
"01R000","壽卡","120.8276","22.2469","屏東縣","20","獅子鄉","344","水利署第7河川局"
"01D180","梅花","121.2004","24.6794","新竹縣","10","尖石鄉","077","水利署第2河川局"
"C1Z140","荖溪","121.4515","23.8924","花蓮縣","21","秀林鄉","166","局屬無人測站"
"81M690","沄水國小","120.5225","23.3832","嘉義縣","17","中埔鄉","224","農委會水土保持局"
"01AG00","社后橋","121.6256","25.0651","新北市","06","汐止區","014","水利署第10河川局"
"01H470","西巒","120.9095","23.7123","南投縣","13","信義鄉","175","水利署第4河川局"
"C0R420","牡丹池山","120.8325","22.1696","屏東縣","20","牡丹鄉","347","局屬無人測站"
"C0E830","苑裡","120.6449","24.4415","苗栗縣","11","苑裡鎮","102","局屬無人測站"
"C0K330","虎尾","120.4339","23.7209","雲林縣","16","虎尾鎮","190","局屬無人測站"
"C0V490","新興","120.2906","22.6291","高雄市","05","新興區","324","局屬無人測站"
"C0G830","埤頭","120.4447","23.8678","彰化縣","14","埤頭鄉","165","局屬無人測站"
"467620","蘭嶼","121.5503","22.0388","臺東縣","22","蘭嶼鄉","351","中央氣象局"
"A1AC60","九如","121.6034","25.0343","臺北市","01","南港區","035","北市府大地工程處"
"01S360","紹家","120.8501","22.3814","臺東縣","22","達仁鄉","337","水利署第8河川局"
"C0A550","泰平","121.8153","24.9731","新北市","06","雙溪區","024","局屬無人測站"
"C1F9F1","伯公龍","120.8411","24.2742","臺中市","02","東勢區","113","局屬無人測站"
"00Q070","屏東(5)","120.4583","22.6566","屏東縣","20","屏東市","309","水利署第7河川局"
"81F0B0","松鶴","120.9776","24.1788","臺中市","02","和平區","104","農委會水土保持局"
"C0U990","員山","121.7143","24.7461","宜蘭縣","07","員山鄉","074","局屬無人測站"
"C0M710","東石","120.1457","23.4607","嘉義縣","17","東石鄉","216","局屬無人測站"
"21C080","高義","121.35","24.7167","桃園市","08","復興區","067","石門水庫"
"C1U670","寒溪","121.7087","24.6358","宜蘭縣","07","冬山鄉","087","局屬無人測站"
"C0A9C0","天母","121.5289","25.1193","臺北市","01","士林區","007","局屬無人測站"
"01O760","關山","120.5871","23.1751","臺南市","04","南化區","244","水利署第6河川局"
"01A160","林口(1)","121.3686","25.079","新北市","06","林口區","016","水利署第10河川局"
"467530","阿里山","120.8051","23.51","嘉義縣","17","阿里山鄉","208","中央氣象局"
"O1D570","新城國小","120.9592","24.7352","新竹縣","10","寶山鄉","076","水利署第2河川局"
"C0F9V0","新社","120.8075","24.2016","臺中市","02","新社區","119","局屬無人測站"
"C0X310","七股","120.0782","23.149","臺南市","04","七股區","253","局屬無人測站"
"C0I080","信義","120.8428","23.6914","南投縣","13","信義鄉","175","局屬無人測站"
"A0W100","九宮碼頭","118.2556","24.4274","金門縣","99","烈嶼鄉","999","中央氣象局"
"C1R630","龍泉","120.5829","22.6688","屏東縣","20","內埔鄉","310","局屬無人測站"
"C0UA30","白嶺","121.5108","24.5296","宜蘭縣","07","大同鄉","081","局屬無人測站"
"82H840","凍頂茶改","120.7324","23.7643","南投縣","13","鹿谷鄉","183","中央氣象局"
"81D600","五峰國小","121.1094","24.6333","新竹縣","10","五峰鄉","089","農委會水土保持局"
"00H810","惠蓀(2)","121.0241","24.0925","南投縣","13","仁愛鄉","122","水利署第3河川局"
"466930","竹子湖","121.5363","25.1639","臺北市","01","北投區","006","中央氣象局"
"C1V580","溪南(特)","120.7804","23.0868","高雄市","05","桃源區","353","局屬無人測站"
"21C140","霞雲","121.35","24.8","桃園市","08","復興區","067","石門水庫"
"A2C560","農工中心","121.2316","24.9877","桃園市","08","中壢區","043","中央氣象局"
"01E290","三義(2)","120.7619","24.416","苗栗縣","11","三義鄉","106","水利署第2河川局"
"C1U880","北關","121.8637","24.9083","宜蘭縣","07","頭城鎮","051","局屬無人測站"
"C0K280","四湖","120.2172","23.6311","雲林縣","16","四湖鄉","195","局屬無人測站"
"A1AA40","碧湖國小","121.5835","25.0865","臺北市","01","內湖區","021","北市府水利處"
"01A130","石碇(2)","121.6497","24.9934","新北市","06","石碇區","040","水利署第10河川局"
"C0UA20","多加屯","121.365","24.3704","宜蘭縣","07","大同鄉","081","局屬無人測站"
"C0M700","竹崎","120.5474","23.5279","嘉義縣","17","竹崎鄉","215","局屬無人測站"
"C0M640","中埔","120.5148","23.4271","嘉義縣","17","中埔鄉","224","局屬無人測站"
"A0A9M0","新店","121.5165","24.9608","新北市","06","新店區","050","中央氣象局"
"A1AG70","仙跡","121.535","24.9911","臺北市","01","文山區","356","北市府大地工程處"
"C1Z120","壽豐","121.4999","23.8727","花蓮縣","21","壽豐鄉","161","局屬無人測站"
"81H900","大觀發電廠","120.8614","23.8563","南投縣","13","水里鄉","168","農委會水土保持局"
"C0Z250","瑞穗林道","121.2988","23.4946","花蓮縣","21","卓溪鄉","207","局屬無人測站"
"C0E730","頭份","120.9042","24.69","苗栗縣","11","頭份市","085","局屬無人測站"
"C0M650","朴子","120.2309","23.4364","嘉義縣","17","朴子市","222","局屬無人測站"
"C0T900","西林","121.4332","23.8137","花蓮縣","21","萬榮鄉","166","局屬無人測站"
"467540","大武","120.8957","22.3574","臺東縣","22","大武鄉","342","中央氣象局"
"81I550","郡坑","120.862","23.7416","南投縣","13","水里鄉","168","農委會水土保持局"
"01T230","立山","121.3045","23.4319","花蓮縣","21","卓溪鄉","207","水利署第9河川局"
"01P770","美濃(2)","120.5321","22.8947","高雄市","05","美濃區","282","水利署第7河川局"
"C0A970","三貂角","121.9939","25.0094","新北市","06","貢寮區","027","局屬無人測站"
"01L390","大湖山","120.6121","23.4769","嘉義縣","17","番路鄉","220","水利署第5河川局"
"81C720","嘎色鬧分校","121.3165","24.7771","桃園市","08","復興區","067","農委會水土保持局"
"C0V740","旗山","120.4755","22.8904","高雄市","05","旗山區","283","局屬無人測站"
"81H970","永興國小","120.8556","23.7866","南投縣","13","水里鄉","168","農委會水土保持局"
"C0R370","佳樂水","120.8367","21.9942","屏東縣","20","滿州鄉","348","局屬無人測站"
"C0M850","表湖","120.6336","23.2436","嘉義縣","17","大埔鄉","233","局屬無人測站"
"81AH90","信賢派出所","121.5179","24.8401","新北市","06","烏來區","061","農委會水土保持局"
"C0K440","二崙","120.4008","23.7746","雲林縣","16","二崙鄉","180","局屬無人測站"
"81R650","丹路國小","120.7433","22.2051","屏東縣","20","獅子鄉","344","農委會水土保持局"
"O1V540","高中(2)","120.7107","23.1321","高雄市","05","六龜區","259","水利署第7河川局"
"01A420","竹子湖","121.5358","25.1641","臺北市","01","士林區","007","水利署第10河川局"
"C1C510","水尾","121.0789","24.9419","桃園市","08","楊梅區","056","局屬無人測站"
"C0I360","水里","120.8417","23.8143","南投縣","13","水里鄉","168","局屬無人測站"
"81V830","那瑪夏國中","120.6886","23.2422","高雄市","05","那瑪夏區","232","農委會水土保持局"
"C0S810","東河","121.2983","22.9736","臺東縣","22","東河鄉","264","局屬無人測站"
"81AH60","長坑國小","121.3823","25.1285","新北市","06","八里區","009","農委會水土保持局"
"C1E670","南礦","120.9947","24.5403","苗栗縣","11","南庄鄉","092","局屬無人測站"
"C0D540","橫山","121.1087","24.7129","新竹縣","10","橫山鄉","078","局屬無人測站"
"01K060","褒忠(2)","120.3029","23.7028","雲林縣","16","褒忠鄉","191","水利署第5河川局"
"C0T960","光復","121.4168","23.6625","花蓮縣","21","光復鄉","194","局屬無人測站"
"C1I470","杉林溪","120.7783","23.6413","南投縣","13","竹山鎮","178","局屬無人測站"
"K2F750","種苗繁殖","120.7928","24.2277","臺中市","02","新社區","119","中央氣象局"
"C0AD10","八里","121.3953","25.1523","新北市","06","八里區","009","局屬無人測站"
"C0C590","觀音","121.1451","25.0289","桃園市","08","觀音區","032","局屬無人測站"
"C1AC50","關渡","121.4612","25.1353","臺北市","01","北投區","006","局屬無人測站"
"C0Z180","新城","121.5964","24.0413","花蓮縣","21","新城鄉","136","局屬無人測站"
"01O070","關子嶺(2","120.4989","23.3326","臺南市","04","白河區","228","水利署第5河川局"
"C1T990","高寮","121.3486","23.3961","花蓮縣","21","玉里鎮","221","局屬無人測站"
"C0V450","鳳森","120.3845","22.5469","高雄市","05","小港區","330","局屬無人測站"
"01M010","溪口(3)","120.3919","23.5893","嘉義縣","17","溪口鄉","205","水利署第5河川局"
"A1AA20","平等國小","121.5682","25.131","臺北市","01","士林區","007","北市府水利處"
"01U190","新北城","121.7406","24.6827","宜蘭縣","07","冬山鄉","086","水利署第1河川局"
"C0R280","檳榔","120.8288","22.0779","屏東縣","20","滿州鄉","348","局屬無人測站"
"01O190","東原","120.4378","23.2671","臺南市","04","東山區","236","水利署第5河川局"
"01N860","崎頂","120.3517","22.9667","臺南市","04","龍崎區","273","水利署第6河川局"
"C0U720","南山","121.3733","24.4392","宜蘭縣","07","大同鄉","081","局屬無人測站"
"C1F911","新伯公","120.8328","24.2233","臺中市","02","東勢區","113","局屬無人測站"
"01Q930","三地門","120.6412","22.7101","屏東縣","20","瑪家鄉","308","水利署第7河川局"
"C0E850","大河","120.9406","24.6198","苗栗縣","11","三灣鄉","088","局屬無人測站"
"C1O880","關山","120.5858","23.175","臺南市","04","南化區","244","局屬無人測站"
"81M020","豐山","120.7367","23.5921","嘉義縣","17","阿里山鄉","208","農委會水土保持局"
"C0R100","尾寮山","120.6758","22.8349","屏東縣","20","三地門鄉","291","局屬無人測站"
"01U050","土場(1)","121.4883","24.5747","宜蘭縣","07","大同鄉","081","水利署第1河川局"
"C0U520","雙連埤","121.6331","24.7547","宜蘭縣","07","員山鄉","074","局屬無人測站"
"81M670","新美國小","120.675","23.3396","嘉義縣","17","阿里山鄉","208","農委會水土保持局"
"C0G650","員林","120.5775","23.9483","彰化縣","14","員林市","156","局屬無人測站"
"01D300","關西(3)","121.1722","24.782","新竹縣","10","關西鎮","068","水利署第2河川局"
"01S430","霧鹿","121.0333","23.171","臺東縣","22","海端鄉","240","水利署第8河川局"
"C0X150","安定","120.22","23.1044","臺南市","04","安定區","261","局屬無人測站"
"A1A9W0","陽明高中","121.5085","25.0943","臺北市","01","士林區","007","北市府水利處"
"C0V660","岡山","120.2869","22.7988","高雄市","05","岡山區","294","局屬無人測站"
"C1F9G1","慶福山","120.8397","24.1828","臺中市","02","東勢區","113","局屬無人測站"
"C1I280","埔中","120.6347","23.8225","南投縣","13","名間鄉","173","局屬無人測站"
"01AD90","覽勝橋","121.5432","24.8641","新北市","06","烏來區","061","水利署第10河川局"
"C0Z050","佳心","121.2051","23.3475","花蓮縣","21","卓溪鄉","207","局屬無人測站"
"C1F871","上谷關","121.0105","24.2034","臺中市","02","和平區","104","局屬無人測站"
"01P190","木柵","120.4589","22.9774","高雄市","05","內門區","270","水利署第6河川局"
"C0R130","阿禮","120.7356","22.7444","屏東縣","20","霧臺鄉","292","局屬無人測站"
"81M680","太和村","120.7008","23.5373","嘉義縣","17","梅山鄉","210","農委會水土保持局"
"C0W140","金沙","118.4006","24.4899","金門縣","99","金沙鎮","999","局屬無人測站"
"C0X050","東河","120.3775","23.2983","臺南市","04","東山區","236","局屬無人測站"
"A1AC80","明德","121.5575","25.1155","臺北市","01","士林區","007","北市府大地工程處"
"A1AA50","東湖國小","121.6068","25.071","臺北市","01","內湖區","021","北市府水利處"
"C0I090","鳳凰","120.7792","23.7297","南投縣","13","鹿谷鄉","183","局屬無人測站"
"C1TA00","太魯閣","121.6154","24.1595","花蓮縣","21","秀林鄉","108","局屬無人測站"
"C0X240","關子嶺","120.4999","23.3329","臺南市","04","白河區","228","局屬無人測站"
"C1I201","中心崙","120.7042","23.7303","南投縣","13","竹山鎮","178","局屬無人測站"
"O1P470","旗山(4)","120.4736","22.8813","高雄市","05","旗山區","283","水利署第7河川局"
"A1AA10","格致國中","121.5374","25.1332","臺北市","01","士林區","007","北市府水利處"
"C0C700","中壢","121.2482","24.9794","桃園市","08","中壢區","043","局屬無人測站"
"01T500","北埔","121.5963","24.0389","花蓮縣","21","新城鄉","136","水利署第9河川局"
"01V040","六龜(4)","120.6255","22.9996","高雄市","05","六龜區","259","水利署第7河川局"
"C1D380","新埔","121.0301","24.8492","新竹縣","10","新埔鎮","063","局屬無人測站"
"A1AD80","貴子","121.4816","25.1577","臺北市","01","北投區","006","北市府大地工程處"
"88T830","和中","121.7336","24.2726","花蓮縣","21","秀林鄉","108","農委會水土保持局"
"C0K291","宜梧","120.1612","23.538","雲林縣","16","口湖鄉","201","局屬無人測站"
"01W010","望安","119.4925","23.3626","澎湖縣","23","望安鄉","231","水利署第6河川局"
"C0UA50","西帽山","121.7944","24.5572","宜蘭縣","07","南澳鄉","093","局屬無人測站"
"C0X170","關廟","120.3197","22.9649","臺南市","04","關廟區","272","局屬無人測站"
"01H780","內茅埔(2","120.8437","23.6924","南投縣","13","信義鄉","175","水利署第4河川局"
"NUP810","員山子","121.8065","25.1099","新北市","06","瑞芳區","018","水利署第10河川局"
"01O710","虎頭埤","120.3291","23.0274","臺南市","04","新化區","267","水利署第6河川局"
"C0E780","銅鑼","120.7826","24.4915","苗栗縣","11","銅鑼鄉","100","局屬無人測站"
"01S560","南鵝","121.0163","22.768","臺東縣","22","卑南鄉","289","水利署第8河川局"
"C1Z240","中平林道","121.2595","23.4229","花蓮縣","21","卓溪鄉","207","局屬無人測站"
"82A750","文山茶改","121.623","24.9576","新北市","06","石碇區","040","中央氣象局"
"C1R300","旭海","120.8796","22.1964","屏東縣","20","牡丹鄉","347","局屬無人測站"
"A1AA30","至善國中","121.5474","25.1051","臺北市","01","士林區","007","北市府水利處"
"C1I450","望鄉山","120.9362","23.596","南投縣","13","信義鄉","160","局屬無人測站"
"C0U970","大福","121.8057","24.8024","宜蘭縣","07","壯圍鄉","051","局屬無人測站"
"L1A810","九芎根","121.6417","24.9042","新北市","06","石碇區","040","翡翠水庫"
"72V140","旗南農改","120.5086","22.8596","高雄市","05","旗山區","283","中央氣象局"
"A1A9Z0","中正國中","121.5137","25.0335","臺北市","01","中正區","036","北市府水利處"
"C0V360","內門","120.4583","22.9769","高雄市","05","內門區","270","局屬無人測站"
"A1AA60","留公國中","121.5774","25.039","臺北市","01","信義區","038","北市府水利處"
"466950","彭佳嶼","122.0715","25.6298","基隆市","03","中正區","010","中央氣象局"
"01A430","福山(3)","121.4892","24.7816","新北市","06","烏來區","061","水利署第10河川局"
"C0D650","湖口","121.0354","24.9066","新竹縣","10","湖口鄉","059","局屬無人測站"
"O1S690","神山","120.7202","22.7508","屏東縣","20","霧臺鄉","292","水利署第7河川局"
"01AG10","熊空山","121.4438","24.8774","新北市","06","三峽區","057","水利署第10河川局"
"C0V630","茄萣","120.1746","22.9084","高雄市","05","茄萣區","286","局屬無人測站"
"C0G820","田尾","120.5014","23.9034","彰化縣","14","田尾鄉","167","局屬無人測站"
"01E230","卓蘭(2)","120.805","24.3068","臺中市","02","東勢區","113","水利署第3河川局"
"C0R590","里港","120.4865","22.781","屏東縣","20","里港鄉","295","局屬無人測站"
"81U890","大里國小","121.9179","24.9721","宜蘭縣","07","頭城鎮","051","農委會水土保持局"
"C0X300","鹿寮","120.4692","23.3878","臺南市","04","白河區","228","局屬無人測站"
"C1I320","奧萬大","121.1704","23.9547","南投縣","13","仁愛鄉","122","局屬無人測站"
"C0A540","四堵","121.7375","24.8944","新北市","06","坪林區","053","局屬無人測站"
"C1S850","豐南","121.2543","23.124","花蓮縣","21","富里鄉","241","局屬無人測站"
"C0AH10","永和","121.4999","25.013","新北市","06","永和區","045","局屬無人測站"
"81S930","射馬干","121.0298","22.7268","臺東縣","22","卑南鄉","289","農委會水土保持局"
"C0R240","來義","120.6171","22.5291","屏東縣","20","萬巒鄉","319","局屬無人測站"
"01N850","南化(2)","120.4713","23.0463","臺南市","04","南化區","244","水利署第6河川局"
"01S870","北源","121.2929","23.0393","臺東縣","22","東河鄉","264","水利署第8河川局"
"O1S680","金針山","120.9445","22.6446","臺東縣","22","金峰鄉","312","水利署第8河川局"
"C0U960","翠峰湖","121.5999","24.5127","宜蘭縣","07","大同鄉","081","局屬無人測站"
"81AH80","五城加油站","121.4628","24.9417","新北市","06","新店區","050","農委會水土保持局"
"C0T9E0","大坑","121.5738","23.8824","花蓮縣","21","壽豐鄉","161","局屬無人測站"
"C0D550","雪霸","121.1079","24.5287","新竹縣","10","五峰鄉","089","局屬無人測站"
"81R660","內獅國小","120.6367","22.3068","屏東縣","20","獅子鄉","344","農委會水土保持局"
"C0A880","福隆","121.9342","25.0192","新北市","06","貢寮區","027","局屬無人測站"
"C1T920","中興","121.4905","23.7713","花蓮縣","21","壽豐鄉","161","局屬無人測站"
"C0I530","小奇萊","121.2876","24.1336","南投縣","13","仁愛鄉","178","局屬無人測站"
"C0M670","大林","120.4503","23.6024","嘉義縣","17","大林鎮","202","局屬無人測站"
"A0C410","中央大學","121.1769","24.9695","桃園市","08","中壢區","043","中央氣象局"
"C0G740","大城","120.3128","23.8542","彰化縣","14","大城鄉","169","局屬無人測站"
"A1AD40","油坑","121.5406","25.1821","臺北市","01","北投區","006","北市府大地工程處"
"C0Z061","玉里","121.3316","23.3233","花蓮縣","21","玉里鎮","221","局屬無人測站"
"C0Z170","卓溪","121.2952","23.346","花蓮縣","21","卓溪鄉","207","局屬無人測站"
"C0F9M0","豐原","120.7123","24.2563","臺中市","02","豐原區","117","局屬無人測站"
"81H990","羅娜國小","120.8624","23.6301","南投縣","13","信義鄉","175","農委會水土保持局"
"C1E601","南勢","120.7264","24.5744","苗栗縣","11","後龍鎮","091","局屬無人測站"
"81V820","建山國小","120.6748","23.1072","高雄市","05","桃源區","353","農委會水土保持局"
"01T220","卓麓(4)","121.2595","23.2978","花蓮縣","21","卓溪鄉","207","水利署第9河川局"
"C1M600","頭凍","120.5953","23.4081","嘉義縣","17","番路鄉","220","局屬無人測站"
"L1A800","碧湖","121.7375","24.8944","新北市","06","坪林區","053","翡翠水庫"
"C0F9T0","西屯","120.6329","24.182","臺中市","02","西屯區","125","局屬無人測站"
"01F680","頭汴坑","120.803","24.1169","臺中市","02","太平區","130","水利署第3河川局"
"A1AB40","玉成","121.5743","25.054","臺北市","01","南港區","035","北市府水利處"
"C0U870","大礁溪","121.6668","24.7928","宜蘭縣","07","礁溪鄉","065","局屬無人測站"
"C0S710","鹿野","121.1149","22.9195","臺東縣","22","鹿野鄉","274","局屬無人測站"
"C0U750","龜山島","121.9449","24.8434","宜蘭縣","07","頭城鎮","051","局屬無人測站"
"A1AA90","博嘉國小","121.5671","25.004","臺北市","01","文山區","356","北市府水利處"
"01AF90","三貂嶺","121.8124","25.0614","新北市","06","瑞芳區","018","水利署第10河川局"
"81U860","金岳國小","121.7692","24.4722","宜蘭縣","07","南澳鄉","093","農委會水土保持局"
"467571","新竹","121.006","24.8296","新竹縣","10","竹北市","064","中央氣象局"
"C1I430","翠華","121.2161","24.1937","南投縣","13","仁愛鄉","122","局屬無人測站"
"C0K400","斗六","120.533","23.7223","雲林縣","16","斗六市","355","局屬無人測站"
"C1U501","牛鬥","121.5653","24.6394","宜蘭縣","07","大同鄉","081","局屬無人測站"
"466900","淡水","121.4407","25.1667","新北市","06","淡水區","004","中央氣象局"
"C0I370","魚池","120.9332","23.8975","南投縣","13","魚池鄉","164","局屬無人測站"
"01A200","火燒寮","121.7411","24.9829","新北市","06","平溪區","029","水利署第10河川局"
"C1R440","大漢山","120.7451","22.4059","屏東縣","20","春日鄉","343","局屬無人測站"
"C0R650","竹田","120.5354","22.5866","屏東縣","20","竹田鄉","322","局屬無人測站"
"C0X220","學甲","120.1741","23.2321","臺南市","04","學甲區","239","局屬無人測站"
"01H720","清流(1)","120.9452","24.0681","南投縣","13","仁愛鄉","122","水利署第3河川局"
"C0E740","造橋","120.8566","24.6388","苗栗縣","11","造橋鄉","090","局屬無人測站"
"L1A820","十三股","121.6414","24.9458","新北市","06","石碇區","040","翡翠水庫"
"A1A9T0","大屯國小","121.4957","25.1568","臺北市","01","北投區","006","北市府水利處"
"C0G890","伸港","120.4762","24.1505","彰化縣","14","伸港鄉","126","局屬無人測站"
"C0R620","墾雷","120.8472","21.9027","屏東縣","20","恆春鎮","350","局屬無人測站"
"C0AC60","三峽","121.3615","24.9408","新北市","06","三峽區","057","局屬無人測站"
"C0R560","新園","120.4535","22.5452","屏東縣","20","新園鄉","333","局屬無人測站"
"81I540","上安","120.8685","23.7272","南投縣","13","水里鄉","168","農委會水土保持局"
"C0UA70","桃源谷","121.8807","24.9644","宜蘭縣","07","頭城鎮","051","局屬無人測站"
"467590","恆春","120.7383","22.0057","屏東縣","20","恆春鎮","350","中央氣象局"
"C1F9J1","清水林","120.8122","24.0733","臺中市","02","太平區","130","局屬無人測站"
"B2Q810","恆春畜試","120.7941","21.9473","屏東縣","20","恆春鎮","350","中央氣象局"
"C0R170","屏東","120.4836","22.6619","屏東縣","20","屏東市","309","局屬無人測站"
"A1AA80","市政中心","121.5482","25.0407","臺北市","01","信義區","038","北市府水利處"
"81S910","膽曼","121.4047","23.2267","臺東縣","22","成功鎮","258","農委會水土保持局"
"A1AG50","劍潭","121.5202","25.0849","臺北市","01","中山區","026","北市府大地工程處"
"CAHA00","消防署訓","120.7148","23.8231","南投縣","13","竹山鎮","178","局屬無人測站"
"C0K390","土庫","120.3874","23.6808","雲林縣","16","土庫鎮","189","局屬無人測站"
"466990","花蓮","121.6051","23.9769","花蓮縣","21","花蓮市","150","中央氣象局"
"C0R160","新圍","120.5227","22.7413","屏東縣","20","鹽埔鄉","301","局屬無人測站"
"C0K560","棋山","120.5953","23.6882","雲林縣","16","古坑鄉","196","局屬無人測站"
"A1AB00","北政國中","121.5693","24.9862","臺北市","01","文山區","356","北市府水利處"
"C0R150","三地門","120.6319","22.7117","屏東縣","20","內埔鄉","310","局屬無人測站"
"C0UA40","西德山","121.7444","24.5624","宜蘭縣","07","南澳鄉","093","局屬無人測站"
"467660","臺東","121.1465","22.754","臺東縣","22","臺東市","297","中央氣象局"
"01H680","北山(2)","120.8847","23.9873","南投縣","13","國姓鄉","139","水利署第3河川局"
"C0F0A0","雪山圈谷","121.2282","24.3904","臺中市","02","和平區","104","局屬無人測站"
"C0V500","旗津","120.2779","22.5904","高雄市","05","旗津區","329","局屬無人測站"
"C0W120","西嶼","119.4603","23.5643","澎湖縣","23","西嶼鄉","199","局屬無人測站"
"C0I420","國姓","120.8469","24.0396","南投縣","13","國姓鄉","139","局屬無人測站"
"C1O870","大棟山","120.5142","23.3133","臺南市","04","白河區","228","局屬無人測站"
"C0K430","褒忠","120.2955","23.6927","雲林縣","16","褒忠鄉","191","局屬無人測站"
"C0AI00","五股","121.4191","25.0762","新北市","06","五股區","017","局屬無人測站"
"C0Z100","東華","121.5417","23.8971","花蓮縣","21","壽豐鄉","161","局屬無人測站"
"C0R470","高樹","120.5927","22.8282","屏東縣","20","高樹鄉","289","局屬無人測站"
"C0M770","嘉義梅山","120.5475","23.5871","嘉義縣","17","梅山鄉","210","局屬無人測站"
"81E880","火炎山","120.7211","24.3578","苗栗縣","11","三義鄉","106","農委會水土保持局"
"C0A9B0","石牌","121.5059","25.1176","臺北市","01","北投區","006","局屬無人測站"
"466940","基隆","121.7323","25.1351","基隆市","03","仁愛區","015","中央氣象局"
"01Q870","石門","120.7664","22.1282","屏東縣","20","牡丹鄉","347","水利署第7河川局"
"C0V690","鼓山","120.2675","22.6251","高雄市","05","鼓山區","316","局屬無人測站"
"82S580","臺東茶改","121.1221","22.9095","臺東縣","22","鹿野鄉","274","中央氣象局"
"C1I050","丹大","121.1328","23.7556","南投縣","13","信義鄉","175","局屬無人測站"
"C0R260","春日","120.6203","22.3722","屏東縣","20","春日鄉","343","局屬無人測站"
"82H320","魚池茶改","120.9054","23.8774","南投縣","13","魚池鄉","164","中央氣象局"
"C0U770","南澳","121.802","24.4512","宜蘭縣","07","南澳鄉","093","局屬無人測站"
"C0U950","鶯子嶺","121.7842","24.8993","宜蘭縣","07","頭城鎮","051","局屬無人測站"
"U2H480","臺大溪頭","120.7901","23.6721","南投縣","13","鹿谷鄉","183","中央氣象局"
"C0A870","五指山","121.6003","25.1339","新北市","06","汐止區","014","局屬無人測站"
"01O750","王爺宮","120.3923","23.2239","臺南市","04","六甲區","243","水利署第6河川局"
"C0O860","大內","120.3528","23.1206","臺南市","04","大內區","252","局屬無人測站"
"C0Z210","瑞穗","121.3821","23.5257","花蓮縣","21","瑞穗鄉","209","局屬無人測站"
"81O960","崁頭山","120.4935","23.2696","臺南市","04","東山區","236","農委會水土保持局"
"A1AD30","安泰","121.6049","25.0894","臺北市","01","內湖區","021","北市府大地工程處"
"C1I340","新興橋","120.8597","23.5658","南投縣","13","信義鄉","175","局屬無人測站"
"C0E820","獅潭","120.912","24.541","苗栗縣","11","獅潭鄉","095","局屬無人測站"
"C0C540","大園","121.2178","25.0494","桃園市","08","大園區","019","局屬無人測站"
"C0Z320","清水林道","121.1802","23.273","花蓮縣","21","卓溪鄉","207","局屬無人測站"
"C0V310","美濃","120.5111","22.9006","高雄市","05","美濃區","282","局屬無人測站"
"01U060","梵梵(2)","121.5174","24.6149","宜蘭縣","07","大同鄉","081","水利署第1河川局"
"01D100","太閣南","121.1399","24.6271","新竹縣","10","五峰鄉","089","水利署第2河川局"
"01U230","大濁水","121.7314","24.3312","宜蘭縣","07","南澳鄉","093","水利署第1河川局"
"01E390","大潭","120.8126","24.637","苗栗縣","11","造橋鄉","090","水利署第2河川局"
"81H910","平林國小","120.7544","23.9945","南投縣","13","草屯鎮","152","農委會水土保持局"
"C0Z080","富源","121.3704","23.5898","花蓮縣","21","光復鄉","194","局屬無人測站"
"C0G620","芬園","120.6131","24.0172","彰化縣","14","芬園鄉","148","局屬無人測站"
"466920","臺北","121.5067","25.0394","臺北市","01","中正區","036","中央氣象局"
"C0X160","仁德","120.2498","22.9701","臺南市","04","仁德區","279","局屬無人測站"
"C0G640","鹿港","120.4222","24.0769","彰化縣","14","鹿港鎮","140","局屬無人測站"
"469020","南沙島","114.3567","10.3718","高雄市","99","旗津區","999","中央氣象局"
"72C440","桃園農改","121.0224","24.9527","桃園市","08","新屋區","047","中央氣象局"
"O1T810","卓清國小","121.2639","23.2802","花蓮縣","21","卓溪鄉","207","水利署第9河川局"
"C0X200","左鎮","120.4004","23.0585","臺南市","04","左鎮區","266","局屬無人測站"
"C0C490","八德","121.275","24.9305","桃園市","08","八德區","052","局屬無人測站"
"C0K240","草嶺","120.6853","23.5973","雲林縣","16","古坑鄉","196","局屬無人測站"
"C0C680","龜山","121.3783","25.0302","桃園市","08","龜山區","034","局屬無人測站"
"01C400","石門後池","121.2432","24.8262","桃園市","08","龍潭區","062","水利署第10河川局"
"01V070","天池","120.9088","23.2794","高雄市","05","桃源區","353","水利署第7河川局"
"81R640","佳義國小","120.6229","22.6549","屏東縣","20","瑪家鄉","308","農委會水土保持局"
"01S570","上里","121.049","22.879","臺東縣","22","延平鄉","280","水利署第8河川局"
"C0R220","潮州","120.532","22.5361","屏東縣","20","潮州鎮","332","局屬無人測站"
"C0F9O0","潭子","120.6958","24.2148","臺中市","02","潭子區","123","局屬無人測站"
"C1M610","石磐龍","120.655","23.4981","嘉義縣","17","竹崎鄉","215","局屬無人測站"
"C1H860","瑞岩","121.175","24.1256","南投縣","13","仁愛鄉","122","局屬無人測站"
"C0R600","舊泰武","120.6569","22.59","屏東縣","20","泰武鄉","318","局屬無人測站"
"C1S800","華源","121.0156","22.6597","臺東縣","22","太麻里鄉","312","局屬無人測站"
"C1I211","蘆竹湳","120.8039","23.9358","南投縣","13","中寮鄉","159","局屬無人測站"
"O1S660","賓茂國小","120.9463","22.5342","臺東縣","22","太麻里鄉","352","水利署第8河川局"
"O1V520","民權","120.6886","23.2421","高雄市","05","那瑪夏區","232","水利署第7河川局"
"CAAH60","大安森林","121.5281","25.0313","臺北市","01","大安區","039","局屬無人測站"
"467990","馬祖","119.9151","26.171","連江縣","99","南竿鄉","999","中央氣象局"
"C0Z220","和平林道","121.6481","24.3457","花蓮縣","21","秀林鄉","108","局屬無人測站"
"C1H971","六分寮","120.6297","23.9268","南投縣","13","南投市","160","局屬無人測站"
"C0V710","苓雅","120.3226","22.6245","高雄市","05","苓雅區","323","局屬無人測站"
"C0F9I0","神岡","120.6503","24.2742","臺中市","02","神岡區","114","局屬無人測站"
"C0A530","坪林","121.7015","24.94","新北市","06","坪林區","053","局屬無人測站"
"C1D420","太閣南","121.1522","24.6347","新竹縣","10","五峰鄉","089","局屬無人測站"
"C0V210","復興","120.7978","23.2242","高雄市","05","桃源區","353","局屬無人測站"
"C1S880","壽卡","120.8509","22.2406","臺東縣","22","達仁鄉","337","局屬無人測站"
"C1M390","龍美","120.6458","23.4078","嘉義縣","17","番路鄉","220","局屬無人測站"
"01T720","明里","121.2436","23.2041","花蓮縣","21","富里鄉","241","水利署第9河川局"
"01J970","草嶺(2)","120.6875","23.5859","雲林縣","16","古坑鄉","196","水利署第4河川局"
"A1AD20","竹湖","121.5201","25.1701","臺北市","01","北投區","006","北市府大地工程處"
"C0K450","大埤","120.4234","23.6478","雲林縣","16","大埤鄉","199","局屬無人測站"
"C0G760","高鐵彰化","120.5665","23.877","彰化縣","14","田中鎮","170","局屬無人測站"
"C1R110","口社","120.6372","22.7719","屏東縣","20","三地門鄉","291","局屬無人測站"
"C1I070","和社","120.8808","23.5925","南投縣","13","信義鄉","175","局屬無人測站"
"C1V570","吉東","120.5373","22.856","高雄市","05","美濃區","282","局屬無人測站"
"C1V160","達卡努瓦","120.6972","23.2817","高雄市","05","那瑪夏區","232","局屬無人測站"
"01A170","坪林(4)","121.7021","24.9382","新北市","06","坪林區","053","水利署第10河川局"
"O1S650","利吉國小","121.1309","22.8405","臺東縣","22","卑南鄉","289","水利署第8河川局"
"C0O900","善化","120.2894","23.1144","臺南市","04","善化區","255","局屬無人測站"
"C0G870","芳苑","120.3119","23.924","彰化縣","14","芳苑鄉","149","局屬無人測站"
"01G240","萬興(2)","120.4088","23.9571","彰化縣","14","二林鎮","155","水利署第4河川局"
"O1D580","內湖國小","120.8987","24.7439","新竹市","15","香山區","069","水利署第2河川局"
"C1I121","大鞍","120.7517","23.6803","南投縣","13","竹山鎮","178","局屬無人測站"
"C0R530","林邊","120.5021","22.4327","屏東縣","20","林邊鄉","340","局屬無人測站"
"C1R290","石門山","120.7417","22.1167","屏東縣","20","牡丹鄉","347","局屬無人測站"
"01P280","古亭坑","120.3965","22.8945","高雄市","05","田寮區","284","水利署第6河川局"
"O1T820","太平國小","121.312","23.4075","花蓮縣","21","卓溪鄉","207","水利署第9河川局"
"C0AD00","三芝","121.4934","25.2596","新北市","06","三芝區","002","局屬無人測站"
"C0O840","王爺宮","120.3928","23.2238","臺南市","04","六甲區","243","局屬無人測站"
"C1S630","都蘭","121.2208","22.8797","臺東縣","22","東河鄉","264","局屬無人測站"
"C0R550","新埤","120.5748","22.4698","屏東縣","20","新埤鄉","336","局屬無人測站"
"C0AH80","深坑","121.6201","25.0045","新北市","06","深坑區","004","局屬無人測站"
"C0A890","雙溪","121.8561","25.0379","新北市","06","雙溪區","024","局屬無人測站"
"21D150","玉峰","121.3","24.6667","新竹縣","10","尖石鄉","077","石門水庫"
"01H630","草屯(4)","120.6708","23.9743","南投縣","13","草屯鎮","152","水利署第3河川局"
"81D620","錦山派出所","121.2232","24.7738","新竹縣","10","關西鎮","068","農委會水土保持局"
"C0F9L0","后里","120.7215","24.3121","臺中市","02","后里區","111","局屬無人測站"
"C0F0D0","審馬陣","121.4121","24.3835","臺中市","02","和平區","104","局屬無人測站"
"C1V600","藤枝","120.7489","23.0738","高雄市","05","桃源區","353","局屬無人測站"
"O1F390","雙崎(2)","120.9019","24.2941","臺中市","02","和平區","104","水利署第3河川局"
"C0V700","三民","120.3033","22.6469","高雄市","05","三民區","314","局屬無人測站"
"A1AA70","舊莊國小","121.6112","25.0418","臺北市","01","南港區","035","北市府水利處"
"01H400","東埔","120.9202","23.5636","南投縣","13","信義鄉","175","水利署第4河川局"
"01U780","四季","121.418","24.4902","宜蘭縣","07","大同鄉","081","水利署第1河川局"
"C1F9D1","白毛台","120.8789","24.16","臺中市","02","新社區","119","局屬無人測站"
"81T9J0","鳳義坑","121.418","23.7427","花蓮縣","21","鳳林鎮","184","農委會水土保持局"
"C0V260","月眉","120.5318","22.9728","高雄市","05","杉林區","269","局屬無人測站"
"C1U850","觀音海岸","121.7703","24.3851","宜蘭縣","07","南澳鄉","093","局屬無人測站"
"C0F9S0","烏日","120.6159","24.1088","臺中市","02","烏日區","137","局屬無人測站"
"C0X080","佳里","120.1367","23.175","臺南市","04","佳里區","250","局屬無人測站"
"A1AB10","埤腹","121.5371","24.9882","臺北市","01","文山區","356","北市府水利處"
"C0R270","琉球嶼","120.3542","22.334","屏東縣","20","琉球鄉","345","局屬無人測站"
"01H390","望鄉","120.9197","23.621","南投縣","13","信義鄉","175","水利署第4河川局"
"C0AH90","福山植物園","121.5731","24.7625","新北市","06","烏來區","061","局屬無人測站"
"01J960","大埔","120.6073","23.6321","雲林縣","16","古坑鄉","196","水利署第5河川局"
"C0M820","達邦","120.7414","23.4558","嘉義縣","17","阿里山鄉","208","局屬無人測站"
"A0C540","拉拉山","121.3957","24.6921","桃園市","08","復興區","067","中央氣象局"
"88S950","大鳥","120.9022","22.3848","臺東縣","22","大武鄉","342","農委會水土保持局"
"C1X040","東原","120.4553","23.2931","臺南市","04","東山區","236","局屬無人測站"
"C0AH00","汐止","121.6506","25.0687","新北市","06","汐止區","014","局屬無人測站"
"21C090","嘎拉賀","121.4","24.6333","桃園市","08","復興區","067","石門水庫"
"C0AG90","中和","121.4822","24.9945","新北市","06","中和區","048","局屬無人測站"
"C1I330","楓樹林","121.0681","23.9886","南投縣","13","仁愛鄉","122","局屬無人測站"
"C0O980","新市","120.2904","23.0636","臺南市","04","新市區","263","局屬無人測站"
"C1H900","清流","120.9547","24.0828","南投縣","13","仁愛鄉","122","局屬無人測站"
"C0U940","羅東","121.7411","24.6836","宜蘭縣","07","羅東鎮","086","局屬無人測站"
"C1D640","外坪五指山","121.0829","24.6462","新竹縣","10","北埔鄉","080","局屬無人測站"
"01O200","北寮","120.4883","23.2921","臺南市","04","東山區","236","水利署第5河川局"
"01F350","雪嶺","121.0173","24.2813","臺中市","02","和平區","104","水利署第3河川局"
"A1AD70","茶場","121.6551","25.0302","臺北市","01","南港區","035","北市府大地工程處"
"A1AB70","奇岩","121.4949","25.1257","臺北市","01","北投區","006","北市府水利處"
"B2E890","新竹畜試","120.7628","24.5296","苗栗縣","11","西湖鄉","097","中央氣象局"
"C0F9K0","大安","120.58","24.3474","臺中市","02","大安區","107","局屬無人測站"
"01L360","小公田(2","120.6336","23.4263","嘉義縣","17","番路鄉","220","水利署第5河川局"
"C0K410","北港","120.2837","23.5758","雲林縣","16","北港鎮","203","局屬無人測站"
"C0F000","大肚","120.564","24.1547","臺中市","02","大肚區","127","局屬無人測站"
"467300","東吉島","119.6594","23.2587","澎湖縣","23","望安鄉","231","中央氣象局"
"01R440","泗林","120.5615","22.5474","屏東縣","20","潮州鎮","332","水利署第7河川局"
"C0R140","瑪家","120.6789","22.6847","屏東縣","20","瑪家鄉","308","局屬無人測站"
"C1S860","利嘉","121.0424","22.8111","臺東縣","22","卑南鄉","289","局屬無人測站"
"01B030","五堵","121.6884","25.0808","基隆市","03","七堵區","012","水利署第10河川局"
"C1I240","外大坪","120.9097","23.9606","南投縣","13","埔里鎮","147","局屬無人測站"
"C0I410","名間","120.6933","23.8388","南投縣","13","名間鄉","173","局屬無人測站"
"81AI10","建安國小","121.4384","24.9275","新北市","06","三峽區","057","農委會水土保持局"
"C0G810","埔心","120.5176","23.9487","彰化縣","14","埔心鄉","158","局屬無人測站"
"C0U650","玉蘭","121.5789","24.6772","宜蘭縣","07","大同鄉","081","局屬無人測站"
"C1E711","馬拉邦山","120.8933","24.3692","苗栗縣","11","大湖鄉","103","局屬無人測站"
"C0D660","新竹市東區","120.9787","24.8004","新竹市","15","東區","070","局屬無人測站"
"A1AD50","劍南","121.5431","25.0917","臺北市","01","中山區","026","北市府大地工程處"
"C1S660","下馬","121.0622","23.1522","臺東縣","22","海端鄉","240","局屬無人測站"
"01Q250","泰武(1)","120.6873","22.6085","屏東縣","20","泰武鄉","318","水利署第7河川局"
"NUP460","平溪旅遊","121.7656","25.0502","新北市","06","平溪區","029","水利署第10河川局"
"01E240","珊珠湖","120.9521","24.6888","苗栗縣","11","頭份市","085","水利署第2河川局"
"81T870","東興部落","121.5228","23.637","花蓮縣","21","豐濱鄉","188","農委會水土保持局"
"21C050","石門","121.2403","24.8111","桃園市","08","龍潭區","062","石門水庫"
"O1AH30","吉林國小","121.8793","24.9877","新北市","06","貢寮區","027","水利署第1河川局"
"C0T9F0","水璉","121.5342","23.7989","花蓮縣","21","壽豐鄉","161","局屬無人測站"
"C0E540","後龍","120.7756","24.6081","苗栗縣","11","後龍鎮","091","局屬無人測站"
"C0S740","池上","121.2017","23.1214","臺東縣","22","池上鄉","257","局屬無人測站"
"81T850","溪口國小","121.4652","23.8215","花蓮縣","21","壽豐鄉","161","農委會水土保持局"
"01E080","松安","120.9778","24.3996","苗栗縣","11","泰安鄉","101","水利署第3河川局"
"81U910","永樂國小","121.836","24.5777","宜蘭縣","07","蘇澳鎮","354","農委會水土保持局"
"21C070","巴陵","121.3833","24.6833","桃園市","08","復興區","067","石門水庫"
"C1Z040","立山","121.3192","23.445","花蓮縣","21","卓溪鄉","207","局屬無人測站"
"01S270","樟原(1)","121.4514","23.4056","臺東縣","22","長濱鄉","227","水利署第8河川局"
"01T560","西林","121.4239","23.821","花蓮縣","21","萬榮鄉","166","水利署第9河川局"
"C0I010","廬山","121.1733","24.035","南投縣","13","仁愛鄉","122","局屬無人測站"
"A1AD10","擎天","121.5598","25.1651","臺北市","01","士林區","007","北市府大地工程處"
"C0X230","鹽水","120.2395","23.2743","臺南市","04","鹽水區","234","局屬無人測站"
"A1AB50","建國","121.5207","25.074","臺北市","01","中山區","026","北市府水利處"
"C1A9N0","四十份","121.585","24.9358","新北市","06","新店區","050","局屬無人測站"
"01R040","士文","120.6556","22.3701","屏東縣","20","春日鄉","343","水利署第7河川局"
"O1J810","北港(2)","120.2938","23.5797","雲林縣","16","北港鎮","203","水利署第5河川局"
"A1AB80","雙溪","121.5612","25.1154","臺北市","01","士林區","007","北市府水利處"
"81S890","初鹿國中","121.0843","22.8517","臺東縣","22","卑南鄉","289","農委會水土保持局"
"01Q610","古夏","120.6364","22.768","屏東縣","20","三地門鄉","291","水利署第7河川局"
"C0S770","大溪山","120.9353","22.48","臺東縣","22","太麻里鄉","312","局屬無人測站"
"C0G730","二林","120.3679","23.9051","彰化縣","14","二林鎮","155","局屬無人測站"
"C0O930","玉井","120.4525","23.1278","臺南市","04","玉井區","254","局屬無人測站"
"01H110","桶頭(2)","120.6495","23.6464","南投縣","13","竹山鎮","178","水利署第4河川局"
"467770","梧棲","120.5152","24.2578","臺中市","02","梧棲區","118","中央氣象局"
"C0V730","大寮","120.3877","22.6074","高雄市","05","大寮區","320","局屬無人測站"
"C1I030","武界","121.0442","23.9147","南投縣","13","仁愛鄉","122","局屬無人測站"
"C0X260","後壁","120.3542","23.3681","臺南市","04","後壁區","230","局屬無人測站"
"467650","日月潭","120.8999","23.8831","南投縣","13","魚池鄉","164","中央氣象局"
"88K590","華山","120.5888","23.597","雲林縣","16","古坑鄉","196","農委會水土保持局"
"C1I440","新高口","120.8707","23.4805","南投縣","13","信義鄉","175","局屬無人測站"
"C0A980","社子","121.4614","25.1114","臺北市","01","士林區","007","局屬無人測站"
"01S130","武陵","121.1073","22.9715","臺東縣","22","延平鄉","280","水利署第8河川局"
"88H890","南豐","121.0805","24.0191","南投縣","13","仁愛鄉","122","農委會水土保持局"
"C0K550","蔦松","120.2216","23.5161","雲林縣","16","水林鄉","204","局屬無人測站"
"C0F9A0","中竹林","120.7433","24.1056","臺中市","02","太平區","130","局屬無人測站"
"C1M480","獨立山","120.5994","23.5386","嘉義縣","17","竹崎鄉","215","局屬無人測站"
"C0ACA0","新莊","121.4385","25.0533","新北市","06","新莊區","033","局屬無人測站"
"C0E420","竹南","120.8808","24.7108","苗栗縣","11","竹南鎮","079","局屬無人測站"
"C0X180","山上","120.3552","23.0774","臺南市","04","山上區","260","局屬無人測站"
"C0C460","復興","121.3441","24.822","桃園市","08","復興區","067","局屬無人測站"
"C0V250","甲仙","120.5825","23.0817","高雄市","05","甲仙區","251","局屬無人測站"
"C1H920","長豐","120.8717","24.1039","南投縣","13","國姓鄉","139","局屬無人測站"
"01E310","南勢山","120.7271","24.5898","苗栗縣","11","後龍鎮","091","水利署第2河川局"
"L1A830","坪林","121.7056","24.9386","新北市","06","坪林區","053","翡翠水庫"
"01C570","龍壽社區","121.3794","25.0119","桃園市","08","龜山區","034","水利署第10河川局"
"L1A790","翡翠","121.5719","24.9089","新北市","06","新店區","050","翡翠水庫"
"C0T9D0","和中","121.7329","24.2686","花蓮縣","21","秀林鄉","108","局屬無人測站"
"C0T870","鯉魚潭","121.5008","23.9374","花蓮縣","21","壽豐鄉","161","局屬無人測站"
"01D310","新埔(1)","121.0632","24.8312","新竹縣","10","新埔鎮","063","水利署第2河川局"
"C0Z160","鳳林","121.4453","23.7479","花蓮縣","21","鳳林鎮","184","局屬無人測站"
"C0B020","基隆嶼","121.7757","25.1932","基隆市","03","中正區","010","局屬無人測站"
"C0AH50","林口","121.3726","25.074","新北市","06","林口區","016","局屬無人測站"
"C0R540","佳冬","120.5442","22.4212","屏東縣","20","佳冬鄉","341","局屬無人測站"
"C0H890","埔里","120.9443","23.9739","南投縣","13","埔里鎮","147","局屬無人測站"
"01E030","橫龍山","120.9606","24.4717","苗栗縣","11","泰安鄉","101","水利署第2河川局"
"81F890","坪廓分校","120.7485","24.1584","臺中市","02","太平區","130","農委會水土保持局"
"C0V440","鳳山","120.3481","22.6486","高雄市","05","鳳山區","321","局屬無人測站"
"C1F9B1","桐林","120.7272","24.0681","臺中市","02","霧峰區","143","局屬無人測站"
"C0Z070","舞鶴","121.3658","23.4697","花蓮縣","21","瑞穗鄉","209","局屬無人測站"
"C1N001","沙崙","120.3013","22.9373","臺南市","04","歸仁區","271","局屬無人測站"
"01S610","台東(7)","121.1506","22.7553","臺東縣","22","臺東市","297","水利署第8河川局"
"81H960","北港國小","120.9032","24.0584","南投縣","13","國姓鄉","139","農委會水土保持局"
"C0V650","彌陀","120.2383","22.7856","高雄市","05","彌陀區","298","局屬無人測站"
"81AI00","五寮國小","121.3518","24.8607","新北市","06","三峽區","057","農委會水土保持局"
"C0R640","東港","120.4327","22.4642","屏東縣","20","東港鎮","339","局屬無人測站"
"81D660","花園派出所","121.1429","24.6479","新竹縣","10","五峰鄉","089","農委會水土保持局"
"C0Z200","萬榮","121.412","23.711","花蓮縣","21","鳳林鎮","184","局屬無人測站"
"21U110","池端","121.4667","24.6333","宜蘭縣","07","大同鄉","081","石門水庫"
"C0E810","西湖","120.7403","24.5644","苗栗縣","11","西湖鄉","097","局屬無人測站"
"A1AG30","稻香","121.4757","25.1498","臺北市","01","北投區","006","北市府大地工程處"
"01R030","大漢山","120.675","22.4211","屏東縣","20","春日鄉","343","水利署第7河川局"
"C0E870","高鐵苗栗","120.8179","24.609","苗栗縣","11","後龍鎮","091","局屬無人測站"
"C0S910","蘭嶼燈塔","121.4871","22.0849","臺東縣","22","蘭嶼鄉","351","局屬無人測站"
"O1N1A0","大竹坑","120.5689","23.1435","臺南市","04","南化區","244","水利署第6河川局"
"C0F0E0","南湖圈谷","121.4365","24.3655","臺中市","02","和平區","104","局屬無人測站"
"C0G750","竹塘","120.3743","23.8484","彰化縣","14","竹塘鄉","172","局屬無人測站"
"88R460","來義","120.6681","22.5277","屏東縣","20","來義鄉","331","農委會水土保持局"
"O1T800","奇美國小","121.4378","23.4987","花蓮縣","21","瑞穗鄉","209","水利署第9河川局"
"01L490","沙坑","120.5124","23.5321","嘉義縣","17","竹崎鄉","215","水利署第5河川局"
"C0H9C0","合歡山","121.2641","24.1448","南投縣","13","仁愛鄉","122","局屬無人測站"
"C1O850","環湖","120.4103","23.15","臺南市","04","大內區","252","局屬無人測站"
"C0X290","北門","120.1174","23.2695","臺南市","04","北門區","237","局屬無人測站"
"C0Z270","蕃薯寮","121.532","23.7402","花蓮縣","21","壽豐鄉","161","局屬無人測站"
"C0U760","東澳","121.825","24.5238","宜蘭縣","07","南澳鄉","093","局屬無人測站"
"C0V810","左營","120.2769","22.6767","高雄市","05","左營區","311","局屬無人測站"
"C0C620","蘆竹","121.2575","25.0861","桃園市","08","蘆竹區","020","局屬無人測站"
"81T890","瑞北國小","121.368","23.5274","花蓮縣","21","瑞穗鄉","209","農委會水土保持局"
"C0U780","五結","121.7902","24.6887","宜蘭縣","07","五結鄉","082","局屬無人測站"
"01S260","忠勇","121.4315","23.3277","臺東縣","22","長濱鄉","227","水利署第8河川局"
"88D610","下田埔","121.2649","24.6379","新竹縣","10","尖石鄉","077","農委會水土保持局"
"C1F891","稍來","120.9931","24.2675","臺中市","02","和平區","104","局屬無人測站"
"81T860","山興分校","121.4894","23.7296","花蓮縣","21","鳳林鎮","184","農委會水土保持局"
"81K580","坪頂","120.6309","23.7556","雲林縣","16","林內鄉","186","農委會水土保持局"
"81AH50","萬里國小","121.6812","25.1776","新北市","06","萬里區","005","農委會水土保持局"
"C1Z030","紅葉","121.3306","23.495","花蓮縣","21","萬榮鄉","166","局屬無人測站"
"C0AD40","土城","121.4369","24.9749","新北市","06","土城區","049","局屬無人測站"
"C0M660","溪口","120.3954","23.6059","嘉義縣","17","溪口鄉","205","局屬無人測站"
"C0A570","桶後","121.5896","24.8501","新北市","06","烏來區","061","局屬無人測站"
"C0D580","寶山","121.0168","24.7367","新竹縣","10","寶山鄉","076","局屬無人測站"
"01G090","頭汴","120.4759","24.087","彰化縣","14","鹿港鎮","140","水利署第4河川局"
"C0UA00","土場","121.4872","24.5784","宜蘭縣","07","大同鄉","081","局屬無人測站"
"C0UA10","鴛鴦湖","121.404","24.5921","宜蘭縣","07","大同鄉","081","局屬無人測站"
"01T9L0","東富","121.474","23.6866","花蓮縣","21","光復鄉","194","水利署第9河川局"
"C0D570","香山","120.8973","24.7487","新竹市","15","香山區","069","局屬無人測站"
"81H940","人和國小","120.8886","23.7807","南投縣","13","水里鄉","168","農委會水土保持局"
"81F900","峰谷國小","120.7163","24.037","臺中市","02","霧峰區","143","農委會水土保持局"
"O1V510","寶山","120.7008","23.0384","高雄市","05","桃源區","353","水利署第7河川局"
"C0X250","新營","120.3086","23.3124","臺南市","04","新營區","235","局屬無人測站"
"C1D400","鳥嘴山","121.2757","24.7209","新竹縣","10","尖石鄉","077","局屬無人測站"
"01A410","中正橋","121.5082","25.0237","臺北市","01","中正區","036","水利署第10河川局"
"C0V770","大社","120.3386","22.7319","高雄市","05","大社區","304","局屬無人測站"
"C0S790","金崙","120.9589","22.54","臺東縣","22","太麻里鄉","312","局屬無人測站"
"C1R120","上德文","120.6964","22.765","屏東縣","20","三地門鄉","291","局屬無人測站"
"C0V790","萬山","120.68","22.9077","高雄市","05","茂林區","278","局屬無人測站"
"A0A010","臺灣大學","121.5312","25.0161","臺北市","01","大安區","039","中央氣象局"
"O1I360","楠溪","120.8998","23.4746","南投縣","13","信義鄉","175","水利署第7河川局"
"C0K520","雲林東勢","120.2447","23.6767","雲林縣","16","東勢鄉","192","局屬無人測站"
"C0M800","茶山","120.6567","23.3008","嘉義縣","17","阿里山鄉","208","局屬無人測站"
"C0D590","新豐","120.969","24.8724","新竹縣","10","新豐鄉","058","局屬無人測站"
"81S920","金峰鄉公所","120.9529","22.6004","臺東縣","22","金峰鄉","352","農委會水土保持局"
"C0G790","花壇","120.5441","24.0178","彰化縣","14","花壇鄉","146","局屬無人測站"
"C0G860","社頭","120.5781","23.8994","彰化縣","14","社頭鄉","163","局屬無人測站"
"81H920","德化國小","120.9272","23.8505","南投縣","13","魚池鄉","164","農委會水土保持局"
"01P500","阿蓮(2)","120.3191","22.8781","高雄市","05","阿蓮區","287","水利署第6河川局"
"72G600","臺中農改","120.5262","24.0048","彰化縣","14","大村鄉","153","中央氣象局"
"C1F9H1","烏石坑","120.9375","24.2808","臺中市","02","和平區","104","局屬無人測站"
"C0M810","里佳","120.7085","23.3909","嘉義縣","17","阿里山鄉","208","局屬無人測站"
"81D640","錦屏國小","121.2386","24.6822","新竹縣","10","尖石鄉","077","農委會水土保持局"
"C0AC80","文山","121.5675","25.0041","臺北市","01","文山區","356","局屬無人測站"
"72S590","賓朗果園","121.0632","22.8157","臺東縣","22","卑南鄉","289","中央氣象局"
"72N100","臺南農改","120.3341","23.0622","臺南市","04","新化區","267","中央氣象局"
"01U790","清水","121.6291","24.6167","宜蘭縣","07","大同鄉","081","水利署第1河川局"
"C0K490","古坑","120.5516","23.6561","雲林縣","16","古坑鄉","196","局屬無人測站"
"467490","臺中","120.6759","24.1475","臺中市","02","北區","128","中央氣象局"
"01O080","六溪","120.4512","23.3108","臺南市","04","白河區","228","水利署第5河川局"
"01A210","大豹","121.4132","24.8891","新北市","06","三峽區","057","水利署第10河川局"
"C0E590","通霄","120.6964","24.4736","苗栗縣","11","通霄鎮","098","局屬無人測站"
"C0S700","知本","120.9976","22.6867","臺東縣","22","卑南鄉","289","局屬無人測站"
"C0Z330","安通山","121.3404","23.2925","花蓮縣","21","玉里鎮","221","局屬無人測站"
"C1V190","南天池","120.9036","23.2758","高雄市","05","桃源區","353","局屬無人測站"
"A0G720","彰師大","120.5485","24.0831","彰化縣","14","彰化市","142","中央氣象局"
"C0I490","萬大林道","121.0833","23.93","南投縣","13","仁愛鄉","178","局屬無人測站"
"A1AC90","溪山","121.5807","25.1387","臺北市","01","士林區","007","北市府大地工程處"
"01S210","知本(5)","120.991","22.6927","臺東縣","22","卑南鄉","289","水利署第8河川局"
"C0F9Y0","桃山","121.2956","24.4345","臺中市","02","和平區","104","局屬無人測站"
"C1I150","青雲","120.9411","23.8008","南投縣","13","信義鄉","175","局屬無人測站"
"C1U920","思源","121.339","24.3949","宜蘭縣","07","大同鄉","081","局屬無人測站"
"C0T9G0","鳳林山","121.412","23.7371","花蓮縣","21","鳳林鎮","184","局屬無人測站"
"C0K420","西螺","120.4593","23.8022","雲林縣","16","西螺鎮","182","局屬無人測站"
"C1T800","洛韶","121.4458","24.2064","花蓮縣","21","秀林鄉","108","局屬無人測站"
"A1AA00","三興國小","121.5499","25.031","臺北市","01","信義區","038","北市府水利處"
"C1R250","力里","120.6212","22.4298","屏東縣","20","春日鄉","343","局屬無人測站"
"C0E750","苗栗","120.8164","24.5667","苗栗縣","11","苗栗市","096","局屬無人測站"
"81E720","慈惠堂","120.7821","24.4493","苗栗縣","11","銅鑼鄉","100","農委會水土保持局"
"C1U830","烏石鼻","121.8317","24.4847","宜蘭縣","07","蘇澳鎮","354","局屬無人測站"
"81S900","加拿國小","121.1229","23.0028","臺東縣","22","鹿野鄉","274","農委會水土保持局"
"C1U690","新寮","121.7431","24.6275","宜蘭縣","07","冬山鄉","087","局屬無人測站"
"C0G660","溪湖","120.4711","23.9518","彰化縣","14","溪湖鎮","157","局屬無人測站"
"C0M720","番路","120.546","23.4664","嘉義縣","17","番路鄉","220","局屬無人測站"
"C0E530","三義","120.7578","24.4128","苗栗縣","11","三義鄉","106","局屬無人測站"
"81F910","達觀國小","120.9121","24.3354","臺中市","02","和平區","104","農委會水土保持局"
"C0R400","楓港","120.6847","22.1917","屏東縣","20","枋山鄉","346","局屬無人測站"
"C0AC70","信義","121.5564","25.0396","臺北市","01","信義區","038","局屬無人測站"
"C1V340","大津","120.6381","22.89","高雄市","05","六龜區","259","局屬無人測站"
"C1F9C1","白冷","120.9217","24.1844","臺中市","02","和平區","104","局屬無人測站"
"C1E721","泰安","120.9594","24.4906","苗栗縣","11","泰安鄉","101","局屬無人測站"
"C0E610","馬都安","120.9219","24.4531","苗栗縣","11","泰安鄉","101","局屬無人測站"
"C1V590","新發","120.638","23.0588","高雄市","05","六龜區","259","局屬無人測站"
"01T9J0","六十石山","121.3149","23.2193","花蓮縣","21","富里鄉","241","水利署第9河川局"
"C0V610","梓官","120.2593","22.7624","高雄市","05","梓官區","303","局屬無人測站"
"C1T980","龍澗","121.4033","24.025","花蓮縣","21","秀林鄉","108","局屬無人測站"
"01E060","象鼻(1)","120.9402","24.3622","苗栗縣","11","泰安鄉","101","水利署第3河川局"
"A1AG60","福州","121.5461","25.0187","臺北市","01","大安區","039","北市府大地工程處"
"81F880","中坑國小","120.8718","24.2382","臺中市","02","和平區","104","農委會水土保持局"
"C0W130","花嶼","119.3147","23.4018","澎湖縣","23","望安鄉","231","局屬無人測站"
"C0T9B0","水源","121.5292","23.9936","花蓮縣","21","秀林鄉","108","局屬無人測站"
"C1I290","豐丘","120.8789","23.67","南投縣","13","信義鄉","175","局屬無人測站"
"72T250","花蓮農改","121.5558","23.977","花蓮縣","21","吉安鄉","154","中央氣象局"
"C0W110","東莒","119.9724","25.9669","連江縣","99","莒光鄉","999","局屬無人測站"
"00H710","集集(2)","120.7668","23.828","南投縣","13","集集鎮","176","水利署第4河川局"
"C0U860","頭城","121.8226","24.855","宜蘭縣","07","頭城鎮","051","局屬無人測站"
"C0F9Z0","雪山東峰","121.2633","24.3906","臺中市","02","和平區","104","局屬無人測站"
"C0M790","新港","120.3376","23.555","嘉義縣","17","新港鄉","211","局屬無人測站"
"C0K580","高鐵雲林","120.4098","23.7392","雲林縣","16","虎尾鎮","190","局屬無人測站"
"C0X120","麻豆","120.2405","23.1851","臺南市","04","麻豆區","247","局屬無人測站"
"C1G690","下水埔","120.5594","23.8178","彰化縣","14","溪州鄉","174","局屬無人測站"
"C1K540","口湖","120.1724","23.5871","雲林縣","16","口湖鄉","201","局屬無人測站"
"A1AG20","大湖","121.5959","25.0982","臺北市","01","內湖區","021","北市府大地工程處"
"C0AH30","五分山","121.7726","25.073","新北市","06","瑞芳區","018","局屬無人測站"
"C0F9R0","龍井","120.5208","24.1863","臺中市","02","龍井區","115","局屬無人測站"
"C0G780","秀水","120.4957","24.0359","彰化縣","14","秀水鄉","144","局屬無人測站"
"C1R610","西大武山","120.7241","22.6195","屏東縣","20","泰武鄉","318","局屬無人測站"
"C0D480","打鐵坑","121.1426","24.8518","新竹縣","10","新埔鎮","063","局屬無人測站"
"C1F9W0","德基","121.182","24.2567","臺中市","02","和平區","104","局屬無人測站"
"C0F0C0","中坑","120.8952","24.2503","臺中市","02","和平區","104","局屬無人測站"
"C1E451","象鼻","120.9322","24.3703","苗栗縣","11","泰安鄉","101","局屬無人測站"
"A0W080","吉貝","119.596","23.7417","澎湖縣","23","白沙鄉","198","中央氣象局"
"C0F9Q0","外埔","120.6975","24.3496","臺中市","02","外埔區","110","局屬無人測站"
"C1T950","太安","121.3619","23.6686","花蓮縣","21","萬榮鄉","166","局屬無人測站"
"01L910","中坑(3)","120.5128","23.5722","嘉義縣","17","大林鎮","202","水利署第5河川局"
"C0S730","綠島","121.4673","22.669","臺東縣","22","綠島鄉","315","局屬無人測站"
"C0T790","大禹嶺","121.3078","24.1879","花蓮縣","21","秀林鄉","108","局屬無人測站"
"C0M830","山美","120.6601","23.3856","嘉義縣","17","阿里山鄉","208","局屬無人測站"
"C0V750","路竹","120.2514","22.8566","高雄市","05","路竹區","288","局屬無人測站"
"C1T830","布洛灣","121.5631","24.1736","花蓮縣","21","秀林鄉","108","局屬無人測站"
"C0I110","竹山","120.6778","23.7647","南投縣","13","竹山鎮","178","局屬無人測站"
"C0K530","臺西","120.1894","23.7033","雲林縣","16","臺西鄉","187","局屬無人測站"
"C0A9E0","士林","121.4948","25.092","臺北市","01","士林區","007","局屬無人測站"
"01E370","和興","120.9049","24.5298","苗栗縣","11","獅潭鄉","095","水利署第2河川局"
"O1M650","外來吉","120.7318","23.5314","嘉義縣","16","阿里山鄉","355","水利署第4河川局"
"C1I400","凌霄","120.9963","24.0206","南投縣","13","仁愛鄉","122","局屬無人測站"
"A1AG40","四獸","121.5747","25.0311","臺北市","01","信義區","038","北市府大地工程處"
"D2F230","武陵","121.3518","24.3818","臺中市","02","和平區","104","中央氣象局"
"C0G850","田中","120.5804","23.8587","彰化縣","14","田中鎮","170","局屬無人測站"
"81M660","阿里山國小","120.6936","23.4708","嘉義縣","17","阿里山鄉","208","農委會水土保持局"
"C0R480","長治","120.5346","22.6948","屏東縣","20","長治鄉","307","局屬無人測站"
"C0M780","鹿草","120.3002","23.4131","嘉義縣","17","鹿草鄉","226","局屬無人測站"
"01D110","清泉","121.0953","24.5749","新竹縣","10","五峰鄉","089","水利署第2河川局"
"O1M640","豐山","120.7386","23.5764","嘉義縣","16","阿里山鄉","355","水利署第4河川局"
"01U880","福山植物園","121.5731","24.7624","宜蘭縣","07","員山鄉","074","水利署第10河川局"
"467550","玉山","120.9514","23.4894","南投縣","13","信義鄉","175","中央氣象局"
"C0K510","水林","120.2378","23.5747","雲林縣","16","水林鄉","204","局屬無人測站"
"C1M400","菜瓜坪","120.5683","23.2536","嘉義縣","17","大埔鄉","233","局屬無人測站"
"C0F9X0","大雅","120.6162","24.2171","臺中市","02","大雅區","121","局屬無人測站"
"C0R380","枋寮","120.5816","22.3712","屏東縣","20","枋寮鄉","358","局屬無人測站"
"L1A840","太平","121.82","24.9736","新北市","06","雙溪區","024","翡翠水庫"
"01A440","大桶山","121.5548","24.878","新北市","06","烏來區","061","水利署第10河川局"
"81AH70","柑林國小","121.7962","25.0177","新北市","06","雙溪區","024","農委會水土保持局"
"467410","臺南","120.1967","22.995","臺南市","04","中西區","275","中央氣象局"
"C0H950","中寮","120.7585","23.8863","南投縣","13","中寮鄉","159","局屬無人測站"
"C0U600","礁溪","121.7574","24.8193","宜蘭縣","07","礁溪鄉","065","局屬無人測站"
"C1H941","雙冬","120.7942","23.9692","南投縣","13","草屯鎮","152","局屬無人測站"
"C0U910","冬山","121.7855","24.6355","宜蘭縣","07","冬山鄉","087","局屬無人測站"
"C1E511","新開","120.8189","24.3494","苗栗縣","11","大湖鄉","103","局屬無人測站"
"G2P820","鳳山農試","120.348","22.6484","高雄市","05","鳳山區","321","中央氣象局"
"01A380","瑞芳(2)","121.7951","25.1122","新北市","06","瑞芳區","018","水利署第10河川局"
"C0X210","白河","120.4063","23.3492","臺南市","04","白河區","228","局屬無人測站"
"466910","鞍部","121.5215","25.1844","臺北市","01","北投區","006","中央氣象局"
"C0C630","大溪","121.2569","24.8847","桃園市","08","大溪區","060","局屬無人測站"
"C0R360","墾丁","120.7942","21.9478","屏東縣","20","恆春鎮","350","局屬無人測站"
"C0M750","布袋","120.1597","23.3826","嘉義縣","17","布袋鎮","225","局屬無人測站"
"C0D430","峨眉","121.0091","24.6924","新竹縣","10","峨眉鄉","083","局屬無人測站"
"C0V370","古亭坑","120.3939","22.895","高雄市","05","田寮區","284","局屬無人測站"
"C0O960","崎頂","120.3612","22.9613","臺南市","04","龍崎區","273","局屬無人測站"
"C0AD30","蘆洲","121.4641","25.0885","新北市","06","蘆洲區","023","局屬無人測站"
"88V560","集來","120.5848","23.0304","高雄市","05","杉林區","269","農委會水土保持局"
"C1Z130","銅門","121.4847","23.9675","花蓮縣","21","秀林鄉","108","局屬無人測站"
